{"type":"FeatureCollection","features":[{"type":"Feature","properties":{"pays":"Chine","extra":true},"geometry":{"type":"MultiPolygon","coordinates":[[[[123.382,53.527],[126.198,52.487],[127.314,50.644],[129.74,49.185],[133.272,48.104],[133.9,46.25],[131.269,44.04],[128.968,42.087],[125.043,40.468],[121.54,39.047],[120.851,40.673],[118.357,38.129],[122.138,37.547],[120.736,36.55],[119.463,34.688],[120.519,32.102],[121.78,31.171],[122.03,29.882],[121.491,29.102],[120.577,27.592],[119.926,26.792],[119.567,26.044],[118.864,25.104],[117.271,23.735],[114.725,22.727],[113.554,22.213],[111.897,21.831],[110.622,21.224],[109.675,20.981],[108.493,21.767],[106.62,22.615],[104.018,22.55],[101.846,21.256],[99.372,22.481],[97.543,24.477],[98.701,27.382],[96.616,28.758],[92.93,28.233],[89.782,28.189],[86.758,28.08],[83.543,29.192],[79.887,30.951],[78.791,32.465],[78.182,34.919],[75.855,36.667],[74.806,38.329],[74.731,40.34],[77.266,41.005],[80.575,42.887],[81.752,45.346],[83.148,47.226],[85.622,48.172],[88.523,48.403],[91.003,46.146],[95.401,44.252],[107.48,42.466],[114.543,45.354],[119.674,46.607],[117.573,49.596],[120.157,51.664],[123.263,53.554],[123.382,53.527]]]]}},{"type":"Feature","properties":{"pays":"Roumanie","extra":true},"geometry":{"type":"MultiPolygon","coordinates":[[[[20.727,46.176],[21.081,46.247],[21.442,46.682],[21.493,46.763],[21.654,47.032],[21.874,47.3],[22.01,47.473],[22.226,47.681],[22.654,47.776],[23.124,48.088],[23.481,47.977],[24.131,47.911],[24.674,47.893],[24.863,47.76],[25.157,47.793],[25.783,47.937],[26.322,48.167],[26.826,48.244],[27.628,47.312],[27.956,47.042],[28.204,46.699],[28.084,46.012],[28.146,45.621],[28.284,45.397],[28.707,45.22],[29.603,45.377],[29.641,44.982],[29.038,44.912],[28.99,45.006],[28.95,44.821],[28.814,44.641],[28.992,44.687],[28.982,44.677],[28.928,44.617],[28.63,44.299],[28.182,43.785],[27.868,43.984],[27.661,44.041],[27.273,44.132],[26.413,44.043],[25.761,43.701],[25.314,43.652],[24.458,43.745],[24.116,43.7],[23.269,43.849],[22.843,43.905],[23.022,44.093],[22.641,44.294],[22.609,44.552],[22.765,44.559],[22.497,44.695],[22.177,44.482],[21.909,44.649],[21.6,44.754],[21.415,44.877],[21.476,44.962],[21.514,45.127],[20.767,45.61],[20.764,45.76],[20.546,45.912],[20.277,46.145],[20.727,46.176]]]]}},{"type":"Feature","properties":{"pays":"Espagne","extra":true},"geometry":{"type":"MultiPolygon","coordinates":[[[[-7.856,43.76],[-7.039,43.557],[-5.758,43.594],[-5.056,43.47],[-3.945,43.468],[-2.565,43.39],[-1.777,43.343],[-1.471,43.086],[-0.76,42.966],[-0.306,42.844],[0.179,42.735],[0.668,42.839],[1.359,42.715],[1.959,42.411],[2.439,42.381],[3.158,42.433],[3.319,42.321],[3.111,42.197],[2.939,41.72],[2.017,41.263],[0.906,40.985],[0.864,40.684],[0.604,40.624],[-0.321,39.51],[0.086,38.855],[-0.372,38.442],[-0.735,37.629],[-1.443,37.494],[-1.828,37.119],[-2.287,36.824],[-2.769,36.678],[-3.433,36.693],[-4.322,36.711],[-4.814,36.496],[-5.395,36.179],[-5.879,36.161],[-6.177,36.517],[-6.905,37.166],[-7.432,37.253],[-7.255,37.975],[-7.028,38.187],[-7.246,38.734],[-7.149,39.117],[-7.206,39.667],[-7.013,40.139],[-6.891,40.975],[-6.51,41.265],[-6.497,41.657],[-7.014,41.952],[-7.268,41.864],[-8.055,41.82],[-8.205,41.934],[-8.521,42.083],[-8.811,42.187],[-8.857,42.248],[-8.908,42.467],[-8.826,42.536],[-8.943,42.586],[-9.136,42.799],[-8.952,43.231],[-7.866,43.772],[-7.856,43.76]]]]}}]}