{"type":"FeatureCollection","features":[{"type":"Feature","properties":{"terr":"Martinique"},"geometry":{"type":"Polygon","coordinates":[[[-61.11754,14.62759],[-61.12197,14.62894],[-61.12901,14.63143],[-61.13569,14.63289],[-61.13863,14.63725],[-61.13807,14.64104],[-61.14315,14.64506],[-61.14676,14.64699],[-61.14958,14.64859],[-61.15237,14.65372],[-61.15676,14.65651],[-61.15833,14.66235],[-61.16246,14.66839],[-61.1665,14.67362],[-61.1703,14.67993],[-61.17365,14.68475],[-61.17925,14.69379],[-61.18175,14.69973],[-61.18484,14.70852],[-61.18209,14.71949],[-61.18138,14.72519],[-61.17928,14.73322],[-61.17655,14.74121],[-61.17942,14.74873],[-61.18424,14.75492],[-61.19153,14.76193],[-61.19836,14.76673],[-61.20257,14.77422],[-61.2068,14.78053],[-61.21542,14.78285],[-61.22114,14.79488],[-61.22592,14.80088],[-61.22619,14.80698],[-61.22902,14.81777],[-61.22927,14.82211],[-61.22664,14.83014],[-61.22345,14.83428],[-61.22144,14.84024],[-61.2194,14.84461],[-61.21598,14.84735],[-61.21316,14.85175],[-61.21155,14.85518],[-61.20656,14.86166],[-61.20148,14.86248],[-61.19382,14.86613],[-61.19051,14.86728],[-61.18519,14.87005],[-61.18054,14.87481],[-61.17211,14.87561],[-61.1633,14.87759],[-61.15442,14.87729],[-61.14642,14.87737],[-61.13884,14.87777],[-61.13263,14.87492],[-61.12276,14.87195],[-61.11551,14.8704],[-61.10908,14.86692],[-61.10389,14.86503],[-61.09754,14.86168],[-61.08884,14.85329],[-61.08127,14.85161],[-61.07751,14.84652],[-61.07329,14.84468],[-61.06572,14.84335],[-61.06265,14.83871],[-61.05563,14.83386],[-61.048,14.83399],[-61.04262,14.83698],[-61.03973,14.83325],[-61.03642,14.82988],[-61.02959,14.82914],[-61.02885,14.82281],[-61.02472,14.82269],[-61.02164,14.81904],[-61.01893,14.81048],[-61.01287,14.8069],[-61.00679,14.81142],[-61.0037,14.80873],[-61.00279,14.80637],[-61.00263,14.80326],[-61.00431,14.79816],[-60.99849,14.79426],[-60.99665,14.78765],[-60.99081,14.78575],[-60.98933,14.78013],[-60.98548,14.77865],[-60.98019,14.77798],[-60.98226,14.77582],[-60.9803,14.77201],[-60.97703,14.76855],[-60.97408,14.76667],[-60.97212,14.76277],[-60.96759,14.75893],[-60.96765,14.75414],[-60.96509,14.74847],[-60.96293,14.74633],[-60.96247,14.74135],[-60.96093,14.73758],[-60.95675,14.73637],[-60.95332,14.74172],[-60.95266,14.74778],[-60.94955,14.75163],[-60.94525,14.75486],[-60.94085,14.75763],[-60.93511,14.76024],[-60.9332,14.761],[-60.92969,14.76292],[-60.92532,14.76346],[-60.92276,14.7587],[-60.91627,14.76131],[-60.91126,14.76498],[-60.90918,14.76894],[-60.90525,14.76633],[-60.90169,14.76969],[-60.89646,14.77124],[-60.89203,14.77382],[-60.89069,14.77648],[-60.88843,14.78016],[-60.88604,14.77702],[-60.88042,14.77656],[-60.87583,14.77554],[-60.87683,14.77373],[-60.87473,14.76978],[-60.87574,14.76654],[-60.87342,14.76173],[-60.87271,14.7582],[-60.87769,14.75801],[-60.8816,14.76102],[-60.88367,14.76773],[-60.88746,14.76546],[-60.89206,14.76618],[-60.8968,14.76124],[-60.8941,14.75688],[-60.89007,14.75508],[-60.88955,14.75106],[-60.89297,14.74882],[-60.89583,14.74632],[-60.89885,14.74277],[-60.89466,14.7421],[-60.89186,14.73913],[-60.89304,14.73702],[-60.89635,14.7366],[-60.89693,14.7348],[-60.90178,14.73641],[-60.90817,14.73489],[-60.91124,14.73921],[-60.91189,14.74373],[-60.91619,14.74648],[-60.92216,14.74871],[-60.92726,14.75046],[-60.93344,14.74943],[-60.93821,14.74675],[-60.94067,14.74288],[-60.94456,14.73966],[-60.94302,14.7359],[-60.93755,14.73427],[-60.94151,14.73281],[-60.94463,14.73256],[-60.94618,14.72632],[-60.94181,14.72154],[-60.93987,14.71998],[-60.93448,14.71551],[-60.93118,14.72032],[-60.92782,14.72219],[-60.92635,14.71992],[-60.92963,14.71715],[-60.93083,14.71367],[-60.93311,14.70768],[-60.92456,14.70819],[-60.92162,14.70985],[-60.91846,14.71406],[-60.9165,14.715],[-60.91443,14.71318],[-60.91387,14.70801],[-60.91498,14.70414],[-60.91001,14.70003],[-60.90465,14.70103],[-60.90336,14.69984],[-60.9014,14.69584],[-60.90582,14.69547],[-60.90887,14.69233],[-60.91035,14.68904],[-60.91237,14.6915],[-60.91906,14.69084],[-60.92164,14.68846],[-60.9263,14.68886],[-60.92621,14.67999],[-60.92765,14.67919],[-60.93525,14.68242],[-60.93716,14.68167],[-60.93834,14.67494],[-60.9431,14.67236],[-60.93995,14.66713],[-60.9364,14.66462],[-60.93481,14.66063],[-60.93096,14.65576],[-60.92726,14.65292],[-60.92339,14.6552],[-60.92015,14.65793],[-60.91669,14.66089],[-60.91419,14.66407],[-60.91092,14.66613],[-60.90901,14.66181],[-60.90583,14.66342],[-60.90387,14.66435],[-60.90092,14.66234],[-60.89828,14.66236],[-60.89582,14.66108],[-60.89375,14.65894],[-60.89105,14.66054],[-60.89049,14.66564],[-60.88296,14.66549],[-60.88287,14.66034],[-60.88469,14.65926],[-60.88467,14.65632],[-60.88795,14.65387],[-60.8896,14.65637],[-60.89003,14.65067],[-60.89556,14.65023],[-60.90056,14.65162],[-60.90189,14.64964],[-60.90524,14.64872],[-60.90401,14.64586],[-60.89847,14.64337],[-60.89583,14.64118],[-60.89258,14.6417],[-60.88891,14.64212],[-60.89366,14.64039],[-60.89392,14.63791],[-60.89189,14.63618],[-60.89201,14.63311],[-60.89269,14.63066],[-60.89516,14.63059],[-60.89643,14.62871],[-60.89725,14.62515],[-60.89828,14.62018],[-60.89443,14.61942],[-60.88911,14.62096],[-60.88663,14.61841],[-60.88531,14.6165],[-60.88203,14.61928],[-60.88017,14.6194],[-60.87662,14.62154],[-60.87191,14.61878],[-60.87058,14.61764],[-60.87477,14.61574],[-60.87797,14.61232],[-60.8754,14.609],[-60.87143,14.60634],[-60.86892,14.60198],[-60.8721,14.60007],[-60.87039,14.59458],[-60.86856,14.59162],[-60.86101,14.59011],[-60.85472,14.59209],[-60.85173,14.59401],[-60.85129,14.59102],[-60.849,14.58829],[-60.85046,14.5855],[-60.84649,14.58371],[-60.85156,14.58275],[-60.85089,14.58008],[-60.84413,14.57858],[-60.84576,14.57746],[-60.85191,14.57625],[-60.85282,14.57278],[-60.85157,14.56846],[-60.84682,14.56956],[-60.84295,14.5711],[-60.84899,14.56663],[-60.84248,14.5669],[-60.84197,14.56242],[-60.84331,14.55935],[-60.83671,14.56422],[-60.83132,14.56838],[-60.82816,14.56872],[-60.82912,14.56588],[-60.8301,14.56029],[-60.83553,14.5568],[-60.83767,14.55108],[-60.8361,14.54623],[-60.83148,14.5442],[-60.82822,14.54028],[-60.82663,14.53738],[-60.82767,14.53508],[-60.83315,14.53539],[-60.83678,14.53416],[-60.83285,14.53245],[-60.82829,14.53287],[-60.82489,14.53045],[-60.82572,14.5262],[-60.82822,14.52252],[-60.83303,14.52351],[-60.83354,14.51926],[-60.83526,14.51516],[-60.83585,14.51127],[-60.83292,14.51207],[-60.82418,14.51357],[-60.82247,14.50863],[-60.82233,14.50316],[-60.82279,14.49444],[-60.81867,14.49408],[-60.81789,14.49317],[-60.81483,14.48786],[-60.81064,14.48059],[-60.81202,14.47717],[-60.81666,14.47269],[-60.81914,14.4751],[-60.82202,14.47477],[-60.82034,14.47059],[-60.81844,14.46646],[-60.81487,14.46168],[-60.80949,14.46019],[-60.81488,14.46033],[-60.8175,14.45872],[-60.82119,14.45581],[-60.82364,14.45245],[-60.82254,14.44637],[-60.82451,14.44007],[-60.82841,14.43512],[-60.83167,14.43344],[-60.83361,14.43092],[-60.83522,14.42686],[-60.83466,14.42287],[-60.84051,14.42234],[-60.84561,14.42785],[-60.84911,14.42607],[-60.84722,14.42259],[-60.8444,14.42112],[-60.84435,14.4176],[-60.84293,14.41555],[-60.83766,14.41383],[-60.84053,14.41047],[-60.84578,14.41345],[-60.85034,14.40784],[-60.85343,14.40492],[-60.85593,14.40155],[-60.85573,14.39839],[-60.8594,14.39751],[-60.86053,14.39653],[-60.86665,14.39635],[-60.87282,14.39645],[-60.87814,14.39785],[-60.87892,14.40287],[-60.88511,14.40641],[-60.88688,14.41058],[-60.88659,14.41492],[-60.89321,14.42063],[-60.88919,14.42354],[-60.88556,14.42947],[-60.88292,14.43307],[-60.87994,14.43924],[-60.8845,14.44764],[-60.8838,14.45193],[-60.87972,14.44737],[-60.8766,14.44862],[-60.87224,14.44826],[-60.874,14.4528],[-60.87197,14.45654],[-60.86768,14.45492],[-60.86533,14.45707],[-60.86558,14.45988],[-60.86322,14.46401],[-60.86362,14.46542],[-60.86608,14.47046],[-60.87013,14.46918],[-60.87512,14.47171],[-60.87695,14.46919],[-60.88167,14.46661],[-60.88419,14.46428],[-60.88808,14.46083],[-60.89065,14.45872],[-60.89262,14.45264],[-60.89828,14.44798],[-60.89991,14.45161],[-60.90573,14.45537],[-60.91143,14.46071],[-60.91125,14.46482],[-60.91307,14.46854],[-60.9174,14.47169],[-60.92046,14.46769],[-60.92666,14.46539],[-60.93192,14.46263],[-60.93618,14.46447],[-60.94308,14.46624],[-60.95022,14.4664],[-60.95627,14.46536],[-60.96139,14.46879],[-60.96632,14.47312],[-60.9703,14.46958],[-60.97508,14.46872],[-60.97585,14.47564],[-60.97956,14.4815],[-60.9823,14.48129],[-60.9833,14.47868],[-60.9845,14.47462],[-60.98701,14.47346],[-60.98967,14.47742],[-60.99102,14.47636],[-60.99102,14.47116],[-60.9906,14.46677],[-60.99458,14.46857],[-61.00024,14.47304],[-61.00293,14.47808],[-61.00634,14.47617],[-61.0063,14.47105],[-61.01086,14.47367],[-61.01525,14.47687],[-61.02092,14.48053],[-61.03964,14.47385],[-61.0446,14.47004],[-61.04674,14.46498],[-61.04728,14.46097],[-61.05323,14.45586],[-61.0602,14.45487],[-61.06601,14.45912],[-61.06767,14.4655],[-61.07209,14.46911],[-61.07989,14.46872],[-61.0827,14.47638],[-61.07924,14.47965],[-61.07969,14.4859],[-61.08275,14.49198],[-61.08665,14.49133],[-61.08978,14.49393],[-61.0872,14.4982],[-61.08406,14.50103],[-61.08758,14.50703],[-61.09269,14.50697],[-61.10117,14.50817],[-61.09761,14.5123],[-61.09743,14.51669],[-61.0945,14.52205],[-61.09164,14.52519],[-61.08994,14.52834],[-61.08798,14.52869],[-61.08771,14.53411],[-61.0828,14.53697],[-61.07888,14.5397],[-61.07565,14.54203],[-61.06927,14.53999],[-61.06427,14.54253],[-61.0618,14.54807],[-61.05848,14.55167],[-61.05303,14.55335],[-61.05443,14.5567],[-61.05236,14.56057],[-61.05136,14.55862],[-61.05075,14.55893],[-61.05013,14.55576],[-61.05127,14.55234],[-61.04481,14.55233],[-61.0407,14.5561],[-61.03752,14.55305],[-61.03886,14.54866],[-61.04435,14.54659],[-61.04069,14.54145],[-61.03493,14.54163],[-61.03006,14.54083],[-61.02778,14.53714],[-61.02475,14.53852],[-61.02103,14.53845],[-61.01714,14.53796],[-61.0168,14.53435],[-61.01249,14.53789],[-61.00935,14.54184],[-61.00546,14.5391],[-61.00538,14.53775],[-61.00097,14.54322],[-60.99639,14.54599],[-60.99544,14.54919],[-60.99486,14.55191],[-60.99094,14.54808],[-60.99118,14.55197],[-60.99557,14.55485],[-60.99759,14.56142],[-61.00114,14.55951],[-61.00585,14.56198],[-61.00973,14.56025],[-61.0103,14.56462],[-61.01156,14.56833],[-61.01278,14.57182],[-61.00993,14.57827],[-61.0141,14.57947],[-61.0175,14.58325],[-61.02326,14.58352],[-61.02354,14.58818],[-61.02239,14.59147],[-61.01893,14.59348],[-61.01675,14.59843],[-61.01966,14.60081],[-61.01639,14.60251],[-61.02172,14.60331],[-61.02063,14.60638],[-61.02055,14.60986],[-61.02137,14.61177],[-61.02405,14.61305],[-61.0272,14.60887],[-61.03159,14.60588],[-61.03558,14.60681],[-61.04029,14.60582],[-61.03858,14.5992],[-61.03686,14.59403],[-61.0389,14.59446],[-61.04508,14.59491],[-61.04808,14.59701],[-61.05216,14.59795],[-61.05594,14.595],[-61.06095,14.59697],[-61.05972,14.60325],[-61.06146,14.60191],[-61.06609,14.60262],[-61.06614,14.59715],[-61.07079,14.60293],[-61.07558,14.60201],[-61.08177,14.60079],[-61.08605,14.59983],[-61.09106,14.60054],[-61.09442,14.60396],[-61.09794,14.60941],[-61.10024,14.61268],[-61.1037,14.61597],[-61.10828,14.62219],[-61.11298,14.62652],[-61.11754,14.62759]]]}},{"type":"Feature","properties":{"terr":"Guadeloupe"},"geometry":{"type":"MultiPolygon","coordinates":[[[[-61.63356,15.83977],[-61.64319,15.84485],[-61.65092,15.84865],[-61.64898,15.85198],[-61.64665,15.85928],[-61.64346,15.86094],[-61.63654,15.86912],[-61.63445,15.86802],[-61.62312,15.86555],[-61.62414,15.85878],[-61.61533,15.85719],[-61.61657,15.85304],[-61.62034,15.85541],[-61.62576,15.84776],[-61.62954,15.84137],[-61.63356,15.83977]]],[[[-61.11993,16.16716],[-61.12889,16.16945],[-61.12455,16.1733],[-61.11262,16.17455],[-61.10791,16.17274],[-61.11005,16.16883],[-61.1188,16.16778],[-61.11993,16.16716]]],[[[-61.00982,16.34998],[-61.00721,16.34476],[-61.00538,16.34032],[-61.00248,16.33573],[-61.00528,16.33151],[-61.01017,16.32948],[-61.01323,16.32734],[-61.01912,16.32757],[-61.02736,16.323],[-61.03843,16.31488],[-61.04579,16.30921],[-61.05222,16.30656],[-61.06629,16.30316],[-61.07267,16.30187],[-61.07928,16.29989],[-61.08727,16.29585],[-61.09536,16.29182],[-61.09805,16.2936],[-61.09637,16.29842],[-61.09696,16.30484],[-61.09059,16.31052],[-61.08637,16.31157],[-61.0753,16.3191],[-61.06838,16.31931],[-61.06199,16.32151],[-61.05633,16.3267],[-61.05046,16.32845],[-61.04761,16.33258],[-61.04193,16.33447],[-61.03761,16.33687],[-61.03399,16.33846],[-61.03064,16.34123],[-61.02622,16.34264],[-61.02088,16.34354],[-61.01666,16.34892],[-61.00982,16.34998]]],[[[-61.59328,15.85253],[-61.60027,15.85474],[-61.60539,15.85672],[-61.60079,15.85967],[-61.59974,15.86396],[-61.59511,15.86411],[-61.58853,15.8642],[-61.58465,15.86549],[-61.58237,15.87026],[-61.58505,15.87389],[-61.58221,15.87948],[-61.57919,15.8781],[-61.57917,15.87349],[-61.57413,15.88096],[-61.57132,15.88112],[-61.56812,15.87866],[-61.57142,15.8734],[-61.567,15.87228],[-61.57089,15.86919],[-61.57534,15.86741],[-61.57629,15.85825],[-61.57967,15.85592],[-61.58246,15.85711],[-61.58787,15.85918],[-61.59061,15.85445],[-61.59328,15.85253]]],[[[-61.32312,15.94961],[-61.31845,15.96041],[-61.31881,15.96783],[-61.31838,15.97469],[-61.31247,15.97691],[-61.30624,15.9797],[-61.30628,15.98603],[-61.30041,15.98937],[-61.29827,15.99396],[-61.29364,16.00016],[-61.28763,16.00391],[-61.28184,16.00314],[-61.27569,16.00729],[-61.27225,16.0046],[-61.2669,16.00257],[-61.26081,15.99872],[-61.25715,15.99535],[-61.25296,15.99342],[-61.24938,15.9919],[-61.24397,15.99136],[-61.2433,15.98733],[-61.23967,15.98568],[-61.23309,15.98571],[-61.23256,15.982],[-61.23203,15.97784],[-61.23114,15.97354],[-61.22772,15.96859],[-61.2233,15.96674],[-61.22128,15.96334],[-61.21778,15.95753],[-61.21234,15.95536],[-61.2056,15.9511],[-61.19734,15.93499],[-61.19523,15.93064],[-61.197,15.92541],[-61.19736,15.91683],[-61.20127,15.90805],[-61.20271,15.90318],[-61.21026,15.89927],[-61.21539,15.89551],[-61.22325,15.88767],[-61.2303,15.88262],[-61.23575,15.87905],[-61.24053,15.8762],[-61.24859,15.87288],[-61.25477,15.87135],[-61.26331,15.87092],[-61.26871,15.8673],[-61.2739,15.86685],[-61.27847,15.8672],[-61.2833,15.86977],[-61.28885,15.87099],[-61.29569,15.87307],[-61.30315,15.87471],[-61.30979,15.87946],[-61.31923,15.88347],[-61.32649,15.89211],[-61.33102,15.89811],[-61.32943,15.90415],[-61.33259,15.91642],[-61.33489,15.92692],[-61.33706,15.94149],[-61.32537,15.94831],[-61.32312,15.94961]]],[[[-61.80606,16.268],[-61.80958,16.27286],[-61.80333,16.27743],[-61.80415,16.2815],[-61.80164,16.28673],[-61.80263,16.29334],[-61.80222,16.29898],[-61.79807,16.30426],[-61.79635,16.3094],[-61.80181,16.31191],[-61.79227,16.31932],[-61.78679,16.32769],[-61.78744,16.33574],[-61.77927,16.3408],[-61.77571,16.34846],[-61.77106,16.35006],[-61.76627,16.35333],[-61.75947,16.35569],[-61.74861,16.35494],[-61.74596,16.36044],[-61.74001,16.35995],[-61.73246,16.35629],[-61.72829,16.35654],[-61.72461,16.35254],[-61.71982,16.34763],[-61.71572,16.34449],[-61.71613,16.33975],[-61.71141,16.33723],[-61.70318,16.3365],[-61.69767,16.33421],[-61.69216,16.33323],[-61.68858,16.33],[-61.68626,16.32587],[-61.68017,16.32687],[-61.67839,16.32718],[-61.67261,16.32461],[-61.67104,16.32121],[-61.66901,16.31708],[-61.66493,16.3176],[-61.65818,16.31982],[-61.65036,16.32103],[-61.64411,16.31796],[-61.6432,16.31344],[-61.64057,16.30868],[-61.63454,16.30783],[-61.62913,16.30463],[-61.62438,16.30125],[-61.61412,16.30326],[-61.60499,16.30433],[-61.60141,16.30097],[-61.60715,16.29644],[-61.61099,16.28996],[-61.616,16.28249],[-61.61931,16.2845],[-61.61773,16.28928],[-61.62067,16.29061],[-61.62207,16.28434],[-61.62651,16.27831],[-61.61987,16.27687],[-61.61144,16.27875],[-61.61455,16.26879],[-61.60992,16.26844],[-61.60292,16.27273],[-61.59921,16.28111],[-61.599,16.27759],[-61.59848,16.27261],[-61.5974,16.26605],[-61.58934,16.26785],[-61.58347,16.27152],[-61.57916,16.27886],[-61.57706,16.28404],[-61.5731,16.28166],[-61.56643,16.28559],[-61.56199,16.28457],[-61.55865,16.2864],[-61.55298,16.28243],[-61.55609,16.27888],[-61.56065,16.27606],[-61.55609,16.27296],[-61.55315,16.27823],[-61.54928,16.27612],[-61.54862,16.26988],[-61.54764,16.26355],[-61.54723,16.25614],[-61.55279,16.25089],[-61.54979,16.24544],[-61.55075,16.23555],[-61.54679,16.23277],[-61.54692,16.22825],[-61.54771,16.22329],[-61.55444,16.23007],[-61.55893,16.23525],[-61.56219,16.23202],[-61.56721,16.23598],[-61.57494,16.23436],[-61.57992,16.23688],[-61.5846,16.23031],[-61.58833,16.21796],[-61.5874,16.21185],[-61.58523,16.20727],[-61.58843,16.19848],[-61.58995,16.18918],[-61.58639,16.18306],[-61.5802,16.17899],[-61.58108,16.1728],[-61.58496,16.16754],[-61.58189,16.15758],[-61.57547,16.1536],[-61.57603,16.14723],[-61.57616,16.14235],[-61.57413,16.13778],[-61.56761,16.1352],[-61.5622,16.1334],[-61.5629,16.12735],[-61.56995,16.12107],[-61.56719,16.10849],[-61.56348,16.10508],[-61.56093,16.10163],[-61.56051,16.09516],[-61.55953,16.08906],[-61.56085,16.0807],[-61.56096,16.07212],[-61.55913,16.05936],[-61.55534,16.05324],[-61.55643,16.05117],[-61.56091,16.04573],[-61.56476,16.03762],[-61.56897,16.02965],[-61.57176,16.02474],[-61.57726,16.02026],[-61.58178,16.01577],[-61.58639,16.01178],[-61.58884,16.00899],[-61.59249,16.00689],[-61.59841,16.00273],[-61.60315,15.9991],[-61.60613,15.99474],[-61.61241,15.9913],[-61.61461,15.98394],[-61.61956,15.97824],[-61.61828,15.97308],[-61.62217,15.97152],[-61.62853,15.97048],[-61.63276,15.9677],[-61.63696,15.96786],[-61.64355,15.96736],[-61.64853,15.96974],[-61.6536,15.9667],[-61.65934,15.96023],[-61.66272,15.96436],[-61.67352,15.95675],[-61.67878,15.95195],[-61.68519,15.94973],[-61.69337,15.94855],[-61.70156,15.94743],[-61.70767,15.94891],[-61.70987,15.95457],[-61.70806,15.96103],[-61.71019,15.97053],[-61.71323,15.97778],[-61.71666,15.98437],[-61.72578,15.98789],[-61.73422,15.99697],[-61.7404,16.00352],[-61.74578,16.00942],[-61.74717,16.01847],[-61.74815,16.02688],[-61.75369,16.03654],[-61.75716,16.04212],[-61.76204,16.04784],[-61.76593,16.05279],[-61.76954,16.05873],[-61.76819,16.07377],[-61.76733,16.08412],[-61.76659,16.08922],[-61.7714,16.08984],[-61.77297,16.09341],[-61.77355,16.09798],[-61.77395,16.10196],[-61.77271,16.10575],[-61.77337,16.11231],[-61.77318,16.12058],[-61.77302,16.12406],[-61.76986,16.12824],[-61.7715,16.13575],[-61.77592,16.1389],[-61.7789,16.1409],[-61.77629,16.14626],[-61.77557,16.15055],[-61.77648,16.16172],[-61.77727,16.16991],[-61.78155,16.17409],[-61.78321,16.1778],[-61.78355,16.18382],[-61.78286,16.18869],[-61.78746,16.19441],[-61.78565,16.19978],[-61.78289,16.20763],[-61.78339,16.21631],[-61.78494,16.22382],[-61.79027,16.23185],[-61.79618,16.23744],[-61.80153,16.24298],[-61.80233,16.24954],[-61.80483,16.25426],[-61.8052,16.26312],[-61.80606,16.268]]],[[[-61.53048,16.21784],[-61.52942,16.21801],[-61.52296,16.2189],[-61.52604,16.21904],[-61.52747,16.22102],[-61.53202,16.2249],[-61.52981,16.22705],[-61.53358,16.22924],[-61.53331,16.23421],[-61.53663,16.23433],[-61.53879,16.23981],[-61.54784,16.24968],[-61.54846,16.25334],[-61.54674,16.25943],[-61.54748,16.2659],[-61.54736,16.27028],[-61.54811,16.27553],[-61.54761,16.28081],[-61.55053,16.28449],[-61.55416,16.28723],[-61.55065,16.28698],[-61.5442,16.2919],[-61.54231,16.28895],[-61.54423,16.29516],[-61.54699,16.30137],[-61.54562,16.30262],[-61.54127,16.30246],[-61.53748,16.30862],[-61.53572,16.31213],[-61.53555,16.31719],[-61.53338,16.32595],[-61.53554,16.33111],[-61.52954,16.33771],[-61.52963,16.33921],[-61.52327,16.34427],[-61.51602,16.34331],[-61.50684,16.34438],[-61.50696,16.34808],[-61.50395,16.34906],[-61.49939,16.35192],[-61.49377,16.3531],[-61.49955,16.35513],[-61.49709,16.35899],[-61.49959,16.36294],[-61.49769,16.36654],[-61.49708,16.37223],[-61.49504,16.37674],[-61.49809,16.38182],[-61.5046,16.38742],[-61.50727,16.38677],[-61.51226,16.38951],[-61.51996,16.39201],[-61.52575,16.39467],[-61.52866,16.39966],[-61.52982,16.40712],[-61.53232,16.4127],[-61.53423,16.41859],[-61.53501,16.42704],[-61.53807,16.43741],[-61.54115,16.43888],[-61.5373,16.44586],[-61.53565,16.45402],[-61.52852,16.46134],[-61.52174,16.46699],[-61.51238,16.4718],[-61.50653,16.47732],[-61.50409,16.48417],[-61.49625,16.48642],[-61.4899,16.49035],[-61.48509,16.49411],[-61.4801,16.4975],[-61.47827,16.50364],[-61.47477,16.50894],[-61.47096,16.5105],[-61.46693,16.51047],[-61.46668,16.50685],[-61.46332,16.50484],[-61.46335,16.5019],[-61.45568,16.49986],[-61.44777,16.49957],[-61.44355,16.50017],[-61.44144,16.48859],[-61.43867,16.48934],[-61.43367,16.48754],[-61.43081,16.4825],[-61.42755,16.47986],[-61.42463,16.47608],[-61.42075,16.47614],[-61.41723,16.47137],[-61.41378,16.46945],[-61.41005,16.46739],[-61.41003,16.46359],[-61.40894,16.45929],[-61.4076,16.45178],[-61.40642,16.44635],[-61.40321,16.44443],[-61.4005,16.4379],[-61.39901,16.43156],[-61.39855,16.42478],[-61.40029,16.41788],[-61.40093,16.41427],[-61.40295,16.40728],[-61.4036,16.40245],[-61.40553,16.3956],[-61.40583,16.38778],[-61.40274,16.38094],[-61.40181,16.37501],[-61.39593,16.36692],[-61.39271,16.36021],[-61.38788,16.3557],[-61.38381,16.34989],[-61.3803,16.34457],[-61.37671,16.3421],[-61.36934,16.33965],[-61.36746,16.33535],[-61.36211,16.3368],[-61.35567,16.33489],[-61.34888,16.33507],[-61.34469,16.33282],[-61.34087,16.3308],[-61.33214,16.33399],[-61.32439,16.33189],[-61.31523,16.33042],[-61.30651,16.32736],[-61.3008,16.32736],[-61.29779,16.3235],[-61.29167,16.32187],[-61.28597,16.32169],[-61.2818,16.31659],[-61.2756,16.31446],[-61.27234,16.31186],[-61.26639,16.30793],[-61.2636,16.30605],[-61.25849,16.30217],[-61.25449,16.29355],[-61.24817,16.2832],[-61.24575,16.27667],[-61.24232,16.27307],[-61.23358,16.26722],[-61.22369,16.26415],[-61.21824,16.26203],[-61.21237,16.25895],[-61.2025,16.25421],[-61.19943,16.25807],[-61.1945,16.25433],[-61.18632,16.25399],[-61.17927,16.24769],[-61.17596,16.2464],[-61.1752,16.24259],[-61.18326,16.24569],[-61.1902,16.24936],[-61.19478,16.24986],[-61.20259,16.24988],[-61.20843,16.25069],[-61.22099,16.25315],[-61.23324,16.25348],[-61.24365,16.25524],[-61.25567,16.25601],[-61.26578,16.25239],[-61.26577,16.25022],[-61.2733,16.25028],[-61.28084,16.25003],[-61.28677,16.24565],[-61.29446,16.24323],[-61.30256,16.24261],[-61.31107,16.24214],[-61.31707,16.24101],[-61.32326,16.24391],[-61.32441,16.24107],[-61.33689,16.24189],[-61.34107,16.2398],[-61.35008,16.23612],[-61.35968,16.23516],[-61.36662,16.23313],[-61.37204,16.2282],[-61.37844,16.22301],[-61.38831,16.22345],[-61.39402,16.21721],[-61.40055,16.21888],[-61.40567,16.21657],[-61.40859,16.21298],[-61.41605,16.211],[-61.41989,16.20968],[-61.42289,16.20952],[-61.42556,16.2089],[-61.43229,16.20918],[-61.44246,16.20695],[-61.44933,16.20081],[-61.45513,16.20036],[-61.46089,16.19981],[-61.4655,16.19672],[-61.47258,16.19967],[-61.47855,16.20165],[-61.48564,16.20496],[-61.49298,16.20451],[-61.50471,16.20568],[-61.50768,16.20882],[-61.51006,16.21593],[-61.51704,16.21444],[-61.52079,16.21348],[-61.52838,16.21728],[-61.53048,16.21784]]]]}},{"type":"Feature","properties":{"terr":"La Réunion"},"geometry":{"type":"Polygon","coordinates":[[[55.25415,-21.10974],[55.24809,-21.10609],[55.24405,-21.10148],[55.23516,-21.09486],[55.22643,-21.08406],[55.2209,-21.07737],[55.22136,-21.0668],[55.22176,-21.05838],[55.22545,-21.05486],[55.22378,-21.05329],[55.21985,-21.04698],[55.2167,-21.03785],[55.22145,-21.03228],[55.22586,-21.02761],[55.22958,-21.02321],[55.2337,-21.0191],[55.23743,-21.01837],[55.24265,-21.01947],[55.2465,-21.0199],[55.25655,-21.01623],[55.26341,-21.01183],[55.27233,-21.0052],[55.27653,-21.00109],[55.28054,-20.99129],[55.28254,-20.98004],[55.2822,-20.97083],[55.27875,-20.96338],[55.27748,-20.95501],[55.28051,-20.94883],[55.28137,-20.94365],[55.28395,-20.93763],[55.28247,-20.94228],[55.28381,-20.94414],[55.28386,-20.94024],[55.2853,-20.9404],[55.28753,-20.93866],[55.28712,-20.93474],[55.28779,-20.93424],[55.28972,-20.93291],[55.28801,-20.93152],[55.28545,-20.93234],[55.28636,-20.93481],[55.28359,-20.93428],[55.28368,-20.93165],[55.28415,-20.92557],[55.28971,-20.92295],[55.2994,-20.92787],[55.30836,-20.92942],[55.31829,-20.9283],[55.31452,-20.93163],[55.31946,-20.9327],[55.32272,-20.93532],[55.32506,-20.92956],[55.32172,-20.92636],[55.32649,-20.92842],[55.33335,-20.92632],[55.34451,-20.92222],[55.3498,-20.91523],[55.35206,-20.91143],[55.3626,-20.90611],[55.36957,-20.89871],[55.37682,-20.89528],[55.38461,-20.89059],[55.39284,-20.8845],[55.40384,-20.87963],[55.41682,-20.8757],[55.42594,-20.87421],[55.43603,-20.8763],[55.44324,-20.87539],[55.45117,-20.87174],[55.46098,-20.87969],[55.46962,-20.88425],[55.47455,-20.88483],[55.48211,-20.88542],[55.49125,-20.88542],[55.50288,-20.88226],[55.51239,-20.88465],[55.51979,-20.88813],[55.53562,-20.89187],[55.54156,-20.89468],[55.55064,-20.89544],[55.55492,-20.89251],[55.56122,-20.89227],[55.56703,-20.89272],[55.57371,-20.89362],[55.58179,-20.89755],[55.58851,-20.89605],[55.59428,-20.89677],[55.60294,-20.9015],[55.61044,-20.90566],[55.61904,-20.91007],[55.62676,-20.91056],[55.64038,-20.91326],[55.65663,-20.92065],[55.66491,-20.92543],[55.66813,-20.93039],[55.67448,-20.93716],[55.68261,-20.94368],[55.68763,-20.9512],[55.69067,-20.95706],[55.69582,-20.96423],[55.69784,-20.96929],[55.70069,-20.97861],[55.70019,-20.98974],[55.70039,-21.00252],[55.70175,-21.01313],[55.70335,-21.01868],[55.70442,-21.02116],[55.70779,-21.02803],[55.71547,-21.03025],[55.72081,-21.03542],[55.7238,-21.03903],[55.73122,-21.04831],[55.73078,-21.05725],[55.73586,-21.06686],[55.74147,-21.07439],[55.75145,-21.08386],[55.75884,-21.09315],[55.76531,-21.10268],[55.77144,-21.10697],[55.77725,-21.11644],[55.78152,-21.1227],[55.786,-21.12573],[55.79158,-21.12431],[55.80006,-21.12728],[55.80652,-21.1325],[55.80826,-21.13611],[55.81433,-21.13939],[55.81871,-21.13957],[55.82257,-21.14245],[55.82589,-21.14362],[55.82633,-21.14745],[55.82799,-21.15255],[55.83069,-21.15467],[55.83193,-21.15822],[55.8347,-21.16254],[55.83298,-21.1684],[55.83389,-21.17684],[55.83668,-21.18259],[55.8342,-21.18454],[55.83084,-21.18625],[55.82584,-21.1861],[55.82473,-21.19314],[55.82465,-21.19659],[55.82553,-21.20049],[55.82122,-21.20775],[55.81406,-21.21429],[55.81344,-21.21712],[55.81251,-21.22204],[55.80852,-21.22753],[55.80856,-21.23476],[55.80584,-21.24211],[55.8048,-21.25081],[55.80295,-21.25586],[55.80175,-21.26229],[55.80334,-21.26865],[55.80321,-21.27502],[55.80461,-21.27948],[55.80828,-21.28731],[55.80685,-21.29162],[55.80563,-21.29809],[55.80496,-21.30346],[55.80454,-21.30668],[55.80382,-21.30976],[55.80473,-21.31372],[55.8057,-21.31887],[55.80867,-21.33018],[55.80729,-21.33676],[55.80189,-21.34345],[55.79744,-21.34925],[55.79248,-21.35238],[55.78884,-21.35455],[55.78601,-21.35724],[55.78124,-21.3616],[55.77732,-21.36322],[55.77231,-21.36503],[55.76872,-21.36558],[55.76399,-21.3641],[55.76029,-21.36442],[55.75469,-21.3637],[55.75136,-21.36698],[55.74844,-21.36768],[55.74284,-21.36907],[55.73714,-21.36872],[55.73392,-21.36881],[55.73028,-21.36933],[55.72155,-21.37304],[55.71443,-21.37524],[55.70879,-21.37657],[55.70255,-21.37689],[55.69597,-21.37566],[55.69033,-21.37585],[55.67895,-21.37546],[55.67679,-21.37961],[55.67467,-21.38147],[55.66855,-21.38391],[55.66353,-21.38247],[55.65462,-21.38483],[55.64917,-21.389],[55.64503,-21.38909],[55.64184,-21.38439],[55.62752,-21.38264],[55.61909,-21.38559],[55.612,-21.3865],[55.60544,-21.3851],[55.59936,-21.37937],[55.59405,-21.37734],[55.58962,-21.37621],[55.58841,-21.37333],[55.58499,-21.3722],[55.57727,-21.37428],[55.57197,-21.37601],[55.56541,-21.37307],[55.55913,-21.37298],[55.55655,-21.37213],[55.55341,-21.37249],[55.54999,-21.37348],[55.54608,-21.36779],[55.54203,-21.36657],[55.53894,-21.36504],[55.53244,-21.36328],[55.52361,-21.36118],[55.51949,-21.35911],[55.51599,-21.35813],[55.50978,-21.35475],[55.5065,-21.35412],[55.50101,-21.35059],[55.49522,-21.3501],[55.48813,-21.35019],[55.4841,-21.35238],[55.48177,-21.34852],[55.48037,-21.34577],[55.47634,-21.34399],[55.46764,-21.34419],[55.46141,-21.34185],[55.45604,-21.3366],[55.44895,-21.32838],[55.44312,-21.32815],[55.43638,-21.32688],[55.43006,-21.32639],[55.4196,-21.32155],[55.4131,-21.3159],[55.41046,-21.31095],[55.40631,-21.30529],[55.39923,-21.29892],[55.39662,-21.29553],[55.39069,-21.29216],[55.38164,-21.28875],[55.3685,-21.28504],[55.36363,-21.28386],[55.35872,-21.28367],[55.35078,-21.28252],[55.34379,-21.2814],[55.33948,-21.28101],[55.33343,-21.27532],[55.33368,-21.27106],[55.33258,-21.26573],[55.33168,-21.26131],[55.32729,-21.25601],[55.32145,-21.25251],[55.32112,-21.25072],[55.31516,-21.24484],[55.31128,-21.24159],[55.30766,-21.23874],[55.30419,-21.23634],[55.30163,-21.23562],[55.29297,-21.22979],[55.29236,-21.22427],[55.28882,-21.21948],[55.28674,-21.21316],[55.28573,-21.20932],[55.28191,-21.20382],[55.28266,-21.2011],[55.28415,-21.19677],[55.28585,-21.19008],[55.28687,-21.18566],[55.28731,-21.18187],[55.28664,-21.17311],[55.28718,-21.16466],[55.28243,-21.15517],[55.27623,-21.15092],[55.27228,-21.14658],[55.27023,-21.14359],[55.27134,-21.1384],[55.27067,-21.13285],[55.26797,-21.13037],[55.26409,-21.12684],[55.25984,-21.1206],[55.25621,-21.11716],[55.25318,-21.11395],[55.25472,-21.11088],[55.25415,-21.10974]]]}},{"type":"Feature","properties":{"terr":"Mayotte"},"geometry":{"type":"MultiPolygon","coordinates":[[[[45.04101,-12.64686],[45.04158,-12.64865],[45.04056,-12.64924],[45.03943,-12.64992],[45.03759,-12.6502],[45.03546,-12.65174],[45.0344,-12.65309],[45.03333,-12.65515],[45.03254,-12.65587],[45.03141,-12.65582],[45.03029,-12.65518],[45.02961,-12.65389],[45.03039,-12.65128],[45.02783,-12.64862],[45.02499,-12.64687],[45.02277,-12.64656],[45.02184,-12.64758],[45.02006,-12.64724],[45.01866,-12.64689],[45.01914,-12.64551],[45.01833,-12.64406],[45.01904,-12.64312],[45.02094,-12.64263],[45.02293,-12.64163],[45.02473,-12.64],[45.02523,-12.63875],[45.02561,-12.63758],[45.0266,-12.63659],[45.02823,-12.63734],[45.0313,-12.63885],[45.03287,-12.63977],[45.03389,-12.64126],[45.03565,-12.64266],[45.03714,-12.64376],[45.03837,-12.64504],[45.04043,-12.64659],[45.04101,-12.64686]]],[[[45.09984,-12.80194],[45.09985,-12.79944],[45.10023,-12.7981],[45.10164,-12.79672],[45.10355,-12.79659],[45.10567,-12.79618],[45.10737,-12.79574],[45.10879,-12.79508],[45.11003,-12.7958],[45.11091,-12.79673],[45.11224,-12.79612],[45.11244,-12.79498],[45.11234,-12.79334],[45.11132,-12.79237],[45.11046,-12.79197],[45.10919,-12.7911],[45.10757,-12.79108],[45.10643,-12.79228],[45.10556,-12.79279],[45.10383,-12.79282],[45.10159,-12.79267],[45.1005,-12.79253],[45.09857,-12.79205],[45.09698,-12.79174],[45.09676,-12.79053],[45.09683,-12.78851],[45.09698,-12.78735],[45.09697,-12.78672],[45.0985,-12.7858],[45.09831,-12.78445],[45.09694,-12.78455],[45.09603,-12.78597],[45.09613,-12.7868],[45.09506,-12.78613],[45.09415,-12.78449],[45.09467,-12.78452],[45.0958,-12.78394],[45.0971,-12.78334],[45.09822,-12.78274],[45.09876,-12.78216],[45.09983,-12.78087],[45.10142,-12.7809],[45.10187,-12.77973],[45.10096,-12.77786],[45.10172,-12.77654],[45.10134,-12.77419],[45.10326,-12.77333],[45.10291,-12.77087],[45.10204,-12.76955],[45.10208,-12.7684],[45.1022,-12.76708],[45.1022,-12.76673],[45.10165,-12.76598],[45.10007,-12.7654],[45.09805,-12.76553],[45.09686,-12.76685],[45.0958,-12.76622],[45.09442,-12.76671],[45.09492,-12.76813],[45.09497,-12.76849],[45.09489,-12.77032],[45.093,-12.77098],[45.09171,-12.77091],[45.09167,-12.76969],[45.08996,-12.76827],[45.08799,-12.76716],[45.08709,-12.76524],[45.08657,-12.76535],[45.08444,-12.7648],[45.08111,-12.76402],[45.08035,-12.76498],[45.07941,-12.76647],[45.07806,-12.76677],[45.07682,-12.76651],[45.07516,-12.76577],[45.07386,-12.76523],[45.07407,-12.76392],[45.07239,-12.76165],[45.07063,-12.76068],[45.06946,-12.75955],[45.0684,-12.75867],[45.0664,-12.75827],[45.06493,-12.75723],[45.06462,-12.7553],[45.0637,-12.75353],[45.06274,-12.75233],[45.06166,-12.75176],[45.06004,-12.75087],[45.05894,-12.75134],[45.05705,-12.75147],[45.05667,-12.75117],[45.05516,-12.75174],[45.05447,-12.75297],[45.05321,-12.75525],[45.05179,-12.75616],[45.05124,-12.75553],[45.05039,-12.75378],[45.04996,-12.75223],[45.04843,-12.75106],[45.04696,-12.75143],[45.04521,-12.75019],[45.04466,-12.74947],[45.04396,-12.74924],[45.04308,-12.74781],[45.04263,-12.7467],[45.04251,-12.74525],[45.04266,-12.74393],[45.04441,-12.74258],[45.04591,-12.74098],[45.04633,-12.73978],[45.04983,-12.73883],[45.05196,-12.73727],[45.05395,-12.73518],[45.0552,-12.7329],[45.05651,-12.73095],[45.05732,-12.72924],[45.05791,-12.72771],[45.05678,-12.72568],[45.05669,-12.72461],[45.05488,-12.72346],[45.05294,-12.72344],[45.05155,-12.72347],[45.04923,-12.72224],[45.0461,-12.72251],[45.04421,-12.72284],[45.04207,-12.72358],[45.04029,-12.72322],[45.03989,-12.72186],[45.04153,-12.72167],[45.04326,-12.72118],[45.04446,-12.71952],[45.04521,-12.71809],[45.04645,-12.71709],[45.04787,-12.71546],[45.04844,-12.71392],[45.04932,-12.71265],[45.05032,-12.7113],[45.05032,-12.70991],[45.05133,-12.70845],[45.05107,-12.70668],[45.0506,-12.70546],[45.05001,-12.70469],[45.04944,-12.70405],[45.05043,-12.70248],[45.05128,-12.70178],[45.05163,-12.70084],[45.05261,-12.69973],[45.05425,-12.70064],[45.05582,-12.70116],[45.05758,-12.70153],[45.05932,-12.70087],[45.06078,-12.70128],[45.06198,-12.70188],[45.06365,-12.70098],[45.06512,-12.70032],[45.067,-12.69921],[45.06798,-12.69803],[45.06917,-12.69587],[45.06806,-12.69469],[45.06758,-12.69391],[45.06923,-12.69502],[45.07094,-12.69423],[45.07172,-12.69253],[45.07305,-12.69068],[45.07352,-12.68756],[45.07286,-12.68529],[45.07138,-12.68407],[45.06993,-12.68358],[45.06839,-12.6836],[45.06706,-12.68253],[45.06633,-12.68166],[45.06702,-12.68101],[45.06867,-12.68172],[45.07153,-12.68297],[45.07319,-12.6835],[45.07591,-12.68324],[45.07812,-12.68328],[45.08093,-12.68148],[45.08231,-12.68004],[45.08312,-12.67794],[45.08263,-12.67625],[45.08194,-12.67498],[45.08246,-12.67396],[45.08247,-12.6723],[45.0832,-12.67078],[45.08446,-12.67098],[45.08556,-12.66952],[45.08526,-12.66878],[45.08566,-12.66756],[45.08652,-12.66639],[45.08836,-12.66621],[45.0901,-12.66566],[45.09157,-12.66481],[45.09272,-12.66366],[45.09344,-12.66169],[45.09342,-12.65998],[45.09268,-12.65811],[45.09317,-12.65764],[45.09452,-12.65859],[45.0962,-12.6589],[45.09867,-12.65758],[45.10042,-12.65659],[45.10152,-12.6559],[45.1021,-12.65454],[45.10332,-12.65379],[45.10367,-12.65251],[45.10491,-12.65081],[45.10558,-12.65126],[45.10691,-12.65233],[45.10576,-12.65338],[45.10429,-12.65427],[45.10276,-12.65632],[45.10276,-12.6579],[45.10212,-12.65927],[45.10255,-12.66051],[45.10428,-12.6616],[45.10561,-12.66193],[45.10437,-12.66268],[45.10232,-12.66255],[45.10009,-12.66309],[45.09772,-12.66402],[45.09548,-12.66488],[45.09241,-12.66669],[45.0901,-12.66744],[45.08873,-12.66863],[45.08843,-12.67039],[45.08943,-12.67143],[45.09076,-12.67246],[45.09349,-12.67228],[45.09653,-12.67282],[45.09714,-12.67405],[45.09865,-12.67552],[45.10146,-12.67571],[45.10314,-12.67675],[45.10479,-12.67655],[45.10416,-12.67705],[45.10282,-12.67923],[45.10101,-12.68064],[45.10163,-12.68228],[45.10305,-12.68359],[45.10557,-12.68323],[45.10745,-12.68281],[45.10874,-12.68524],[45.11058,-12.68596],[45.11216,-12.68629],[45.11376,-12.68825],[45.11236,-12.68844],[45.11131,-12.68926],[45.11115,-12.6908],[45.11159,-12.69221],[45.11308,-12.69409],[45.11456,-12.69577],[45.11692,-12.69618],[45.11981,-12.69789],[45.122,-12.69906],[45.12486,-12.70034],[45.12827,-12.70138],[45.13027,-12.70047],[45.13054,-12.70258],[45.13022,-12.70394],[45.12844,-12.70329],[45.12621,-12.70224],[45.12492,-12.70311],[45.12342,-12.70537],[45.12261,-12.70601],[45.1234,-12.70559],[45.12336,-12.70757],[45.12348,-12.70924],[45.12427,-12.71154],[45.12633,-12.71237],[45.12794,-12.71422],[45.12956,-12.71591],[45.13016,-12.71764],[45.12939,-12.71897],[45.13051,-12.72156],[45.13078,-12.72202],[45.12989,-12.72225],[45.12762,-12.72302],[45.1263,-12.72301],[45.12426,-12.72303],[45.12246,-12.72295],[45.12163,-12.72276],[45.12201,-12.72314],[45.12317,-12.7232],[45.12499,-12.72373],[45.12665,-12.72317],[45.12687,-12.72396],[45.12605,-12.72494],[45.12597,-12.72632],[45.12806,-12.72784],[45.12958,-12.72747],[45.13032,-12.72917],[45.13097,-12.73095],[45.13232,-12.72965],[45.134,-12.73147],[45.13598,-12.73072],[45.13745,-12.73081],[45.13741,-12.73267],[45.13839,-12.73275],[45.13913,-12.73328],[45.13944,-12.73386],[45.14027,-12.73447],[45.13973,-12.73392],[45.13977,-12.73301],[45.13891,-12.73257],[45.13782,-12.73286],[45.13794,-12.73157],[45.13941,-12.7326],[45.14128,-12.7331],[45.14242,-12.73309],[45.14398,-12.73203],[45.14409,-12.73055],[45.14318,-12.7291],[45.14124,-12.72934],[45.14077,-12.72852],[45.14232,-12.72813],[45.14507,-12.72861],[45.14603,-12.72816],[45.14739,-12.72845],[45.14873,-12.72853],[45.1508,-12.7294],[45.15027,-12.73016],[45.1501,-12.73135],[45.15005,-12.73267],[45.1506,-12.73412],[45.15176,-12.73525],[45.15327,-12.73611],[45.15588,-12.7362],[45.15786,-12.73515],[45.15918,-12.73382],[45.16045,-12.73239],[45.16154,-12.73228],[45.16205,-12.73107],[45.16201,-12.72965],[45.16151,-12.72787],[45.16298,-12.72689],[45.16479,-12.72622],[45.16482,-12.72541],[45.16338,-12.72348],[45.16561,-12.72408],[45.16721,-12.72204],[45.16501,-12.72131],[45.16454,-12.72093],[45.16378,-12.71971],[45.1652,-12.71861],[45.16589,-12.71749],[45.16811,-12.72021],[45.17009,-12.72305],[45.16971,-12.72512],[45.17147,-12.72647],[45.17261,-12.72739],[45.17419,-12.72839],[45.17602,-12.72916],[45.17679,-12.73014],[45.17932,-12.73045],[45.18029,-12.72879],[45.18176,-12.72807],[45.18269,-12.72712],[45.18506,-12.72726],[45.1857,-12.72939],[45.18782,-12.72928],[45.18912,-12.72937],[45.18981,-12.72828],[45.19128,-12.72931],[45.19274,-12.72953],[45.19356,-12.73042],[45.1962,-12.73112],[45.19686,-12.73044],[45.19813,-12.73011],[45.19939,-12.73106],[45.20097,-12.73009],[45.2023,-12.73029],[45.20392,-12.73021],[45.20552,-12.73096],[45.20579,-12.73217],[45.20705,-12.73231],[45.20646,-12.73414],[45.20855,-12.7351],[45.20977,-12.73439],[45.20985,-12.73535],[45.21152,-12.73552],[45.21204,-12.73422],[45.21287,-12.73293],[45.21335,-12.73219],[45.2142,-12.73244],[45.21452,-12.73355],[45.21383,-12.73432],[45.21394,-12.7354],[45.2129,-12.73658],[45.21189,-12.73778],[45.21235,-12.73943],[45.2146,-12.74167],[45.21626,-12.74202],[45.21848,-12.74186],[45.21899,-12.7432],[45.22168,-12.74455],[45.22348,-12.74435],[45.2249,-12.7434],[45.22602,-12.7441],[45.22624,-12.74505],[45.22662,-12.74616],[45.22828,-12.74775],[45.22818,-12.74926],[45.2295,-12.75067],[45.22998,-12.7508],[45.23162,-12.75234],[45.23354,-12.75252],[45.23499,-12.75176],[45.23585,-12.75243],[45.23691,-12.75348],[45.23596,-12.75552],[45.23496,-12.75674],[45.23599,-12.75818],[45.23657,-12.75969],[45.23791,-12.7604],[45.23916,-12.7606],[45.2399,-12.76182],[45.23954,-12.76309],[45.23779,-12.76316],[45.23598,-12.76468],[45.23617,-12.7661],[45.23583,-12.76765],[45.23466,-12.77042],[45.23426,-12.77207],[45.23406,-12.7733],[45.23255,-12.77303],[45.23113,-12.7734],[45.22976,-12.77324],[45.23028,-12.77197],[45.23125,-12.7709],[45.23297,-12.76909],[45.23369,-12.76752],[45.23234,-12.76666],[45.23187,-12.76349],[45.23035,-12.7621],[45.23037,-12.7635],[45.23054,-12.76542],[45.2311,-12.7667],[45.23061,-12.76698],[45.23009,-12.76831],[45.22909,-12.76891],[45.22827,-12.76821],[45.22837,-12.76882],[45.22938,-12.76922],[45.22908,-12.77022],[45.22737,-12.76996],[45.22765,-12.7708],[45.22696,-12.77138],[45.2277,-12.77266],[45.22718,-12.77422],[45.22581,-12.77395],[45.22634,-12.77486],[45.22742,-12.77565],[45.22869,-12.77488],[45.23062,-12.77539],[45.23201,-12.77566],[45.23334,-12.77684],[45.23339,-12.77767],[45.23258,-12.7786],[45.23305,-12.77925],[45.23384,-12.78077],[45.23557,-12.78166],[45.23695,-12.78124],[45.23828,-12.78205],[45.2381,-12.78335],[45.23803,-12.78444],[45.23755,-12.78521],[45.23595,-12.7861],[45.23544,-12.78516],[45.23473,-12.78335],[45.23133,-12.78413],[45.23066,-12.78461],[45.2303,-12.78604],[45.23029,-12.78631],[45.22935,-12.78585],[45.2267,-12.7866],[45.22561,-12.78772],[45.22344,-12.79059],[45.22259,-12.7906],[45.22196,-12.79015],[45.22172,-12.79023],[45.22259,-12.79126],[45.2202,-12.79307],[45.21804,-12.79479],[45.21641,-12.79488],[45.21625,-12.79608],[45.21584,-12.79887],[45.21666,-12.79969],[45.21559,-12.80121],[45.21395,-12.80185],[45.21386,-12.80303],[45.21119,-12.80486],[45.21026,-12.80588],[45.20963,-12.80628],[45.20932,-12.80561],[45.20809,-12.80692],[45.20604,-12.80827],[45.20479,-12.80835],[45.20424,-12.8087],[45.20381,-12.80946],[45.20322,-12.80972],[45.20308,-12.81039],[45.20364,-12.81193],[45.2045,-12.813],[45.205,-12.81269],[45.20399,-12.81395],[45.20426,-12.81576],[45.20369,-12.81749],[45.20403,-12.81913],[45.20206,-12.82026],[45.20099,-12.82089],[45.19927,-12.82135],[45.19797,-12.8221],[45.1961,-12.82289],[45.1948,-12.8241],[45.19366,-12.82635],[45.19301,-12.82904],[45.19289,-12.82904],[45.19244,-12.82892],[45.19218,-12.83025],[45.19223,-12.83104],[45.19297,-12.83038],[45.19351,-12.83101],[45.19484,-12.83105],[45.19638,-12.83068],[45.19776,-12.83076],[45.19677,-12.83218],[45.19517,-12.83387],[45.19378,-12.83448],[45.19255,-12.8365],[45.19035,-12.83715],[45.18956,-12.83843],[45.18729,-12.83842],[45.18521,-12.83842],[45.18599,-12.84057],[45.18541,-12.84153],[45.18407,-12.84207],[45.18473,-12.84205],[45.18613,-12.84247],[45.18729,-12.8437],[45.18841,-12.84351],[45.18991,-12.8424],[45.1918,-12.84258],[45.19341,-12.84391],[45.19427,-12.84458],[45.1942,-12.84558],[45.19566,-12.84488],[45.19529,-12.84569],[45.1946,-12.84803],[45.19584,-12.85049],[45.19689,-12.85316],[45.19717,-12.85476],[45.19863,-12.85558],[45.19948,-12.8542],[45.20078,-12.85443],[45.20156,-12.85636],[45.20233,-12.85827],[45.20211,-12.86002],[45.20084,-12.86097],[45.20162,-12.86163],[45.20153,-12.86268],[45.20259,-12.86296],[45.20333,-12.86326],[45.20449,-12.86317],[45.20539,-12.86243],[45.20734,-12.86347],[45.20929,-12.86313],[45.21089,-12.86255],[45.21276,-12.86353],[45.21192,-12.8648],[45.21075,-12.86758],[45.21041,-12.86989],[45.21328,-12.87307],[45.21635,-12.87228],[45.22027,-12.87099],[45.2219,-12.87166],[45.22138,-12.87388],[45.22019,-12.87482],[45.2183,-12.87639],[45.21757,-12.87817],[45.21692,-12.87905],[45.21586,-12.88182],[45.21652,-12.88412],[45.21784,-12.88428],[45.21735,-12.88589],[45.21573,-12.88655],[45.21381,-12.88762],[45.21167,-12.8895],[45.21121,-12.89058],[45.21044,-12.89134],[45.20824,-12.89234],[45.20655,-12.89301],[45.20476,-12.89298],[45.20331,-12.89411],[45.20093,-12.89495],[45.19977,-12.89593],[45.19819,-12.89682],[45.19605,-12.89731],[45.19607,-12.89797],[45.19727,-12.89787],[45.19672,-12.89999],[45.19579,-12.90171],[45.19572,-12.90354],[45.19536,-12.90535],[45.19525,-12.90609],[45.19543,-12.90368],[45.19448,-12.90468],[45.19386,-12.9054],[45.19273,-12.90619],[45.19339,-12.90719],[45.19471,-12.90786],[45.19579,-12.90744],[45.19624,-12.90954],[45.19474,-12.91018],[45.19592,-12.90982],[45.19635,-12.91127],[45.19669,-12.9131],[45.19732,-12.91437],[45.20004,-12.91521],[45.2012,-12.91668],[45.20253,-12.91774],[45.20356,-12.91944],[45.2048,-12.92024],[45.20295,-12.92029],[45.20042,-12.92024],[45.19857,-12.91953],[45.19687,-12.91912],[45.19541,-12.91772],[45.1929,-12.91707],[45.19019,-12.91703],[45.1877,-12.91642],[45.18512,-12.9185],[45.18424,-12.92014],[45.18467,-12.92239],[45.185,-12.92428],[45.18375,-12.92436],[45.18223,-12.92525],[45.18014,-12.92542],[45.17856,-12.92738],[45.17712,-12.92939],[45.17611,-12.93199],[45.17582,-12.93488],[45.1767,-12.93612],[45.17788,-12.93693],[45.17929,-12.93877],[45.17963,-12.94091],[45.17951,-12.94239],[45.17885,-12.94341],[45.17735,-12.94295],[45.17538,-12.94215],[45.17324,-12.94147],[45.17118,-12.94273],[45.17083,-12.94281],[45.17003,-12.943],[45.16953,-12.94374],[45.17008,-12.94419],[45.16926,-12.9462],[45.16865,-12.94903],[45.16924,-12.95039],[45.17018,-12.95208],[45.17126,-12.95347],[45.17366,-12.95508],[45.17514,-12.95633],[45.17596,-12.95844],[45.17598,-12.96042],[45.17659,-12.96301],[45.17611,-12.96388],[45.17692,-12.96516],[45.17713,-12.96454],[45.17791,-12.96575],[45.17944,-12.96636],[45.18127,-12.96797],[45.18279,-12.96841],[45.18473,-12.97006],[45.18754,-12.97035],[45.19049,-12.97123],[45.19114,-12.97252],[45.19275,-12.97382],[45.19352,-12.97524],[45.1932,-12.97601],[45.19405,-12.9751],[45.19661,-12.97595],[45.19881,-12.97437],[45.20178,-12.97442],[45.20393,-12.97426],[45.20387,-12.97551],[45.20241,-12.97675],[45.20118,-12.97831],[45.20081,-12.97986],[45.19956,-12.98063],[45.19811,-12.98159],[45.19677,-12.98252],[45.19688,-12.98362],[45.195,-12.98405],[45.19501,-12.98456],[45.19369,-12.98714],[45.19275,-12.98749],[45.19118,-12.98665],[45.18868,-12.98552],[45.18631,-12.98464],[45.18458,-12.9839],[45.18229,-12.98411],[45.18157,-12.98411],[45.18101,-12.98473],[45.18045,-12.9852],[45.17914,-12.98698],[45.17863,-12.98892],[45.17753,-12.99067],[45.17794,-12.99305],[45.17916,-12.99406],[45.17841,-12.99467],[45.17714,-12.99487],[45.17561,-12.99501],[45.17544,-12.99334],[45.17532,-12.99201],[45.17468,-12.99002],[45.17434,-12.9884],[45.1744,-12.98663],[45.17438,-12.9851],[45.17355,-12.98355],[45.17287,-12.98181],[45.17216,-12.97973],[45.17185,-12.97844],[45.16976,-12.97663],[45.1679,-12.97618],[45.16699,-12.97544],[45.16507,-12.97502],[45.16227,-12.97597],[45.16214,-12.97561],[45.16256,-12.97483],[45.16186,-12.97528],[45.16109,-12.97433],[45.16047,-12.97378],[45.16076,-12.97284],[45.16061,-12.97306],[45.16017,-12.97417],[45.15919,-12.97543],[45.15814,-12.97632],[45.15779,-12.97773],[45.15852,-12.9775],[45.1594,-12.97738],[45.15753,-12.97872],[45.15599,-12.98031],[45.15641,-12.98224],[45.15697,-12.98432],[45.15738,-12.98607],[45.15746,-12.98816],[45.15665,-12.9903],[45.15559,-12.99176],[45.1546,-12.99312],[45.15355,-12.99491],[45.15309,-12.99609],[45.15199,-12.99759],[45.15063,-12.99905],[45.14845,-12.99998],[45.14698,-12.99933],[45.14633,-12.99961],[45.14488,-12.99928],[45.14303,-12.99938],[45.14164,-12.99911],[45.14048,-12.99665],[45.13948,-12.99471],[45.13919,-12.99281],[45.13895,-12.99133],[45.13785,-12.99139],[45.13504,-12.99058],[45.13639,-12.98956],[45.1352,-12.99007],[45.13384,-12.98999],[45.13413,-12.98887],[45.13295,-12.9893],[45.1331,-12.99071],[45.13217,-12.99191],[45.13144,-12.99344],[45.13018,-12.99418],[45.12857,-12.99479],[45.12678,-12.99512],[45.12607,-12.99483],[45.12576,-12.99305],[45.12539,-12.99176],[45.12549,-12.98941],[45.12667,-12.98716],[45.12575,-12.98517],[45.12533,-12.98414],[45.1246,-12.9826],[45.12483,-12.98103],[45.12459,-12.9809],[45.12416,-12.98141],[45.12349,-12.98176],[45.12043,-12.98057],[45.11845,-12.98064],[45.11702,-12.98072],[45.11525,-12.98137],[45.11334,-12.98283],[45.11199,-12.98472],[45.11096,-12.98621],[45.11045,-12.98797],[45.10979,-12.98967],[45.10958,-12.99086],[45.10931,-12.99284],[45.10881,-12.99389],[45.10858,-12.99258],[45.10734,-12.99072],[45.10559,-12.988],[45.10611,-12.98606],[45.10769,-12.98375],[45.10827,-12.98195],[45.10795,-12.98045],[45.10735,-12.97935],[45.10754,-12.97732],[45.107,-12.97537],[45.10715,-12.97325],[45.10901,-12.97175],[45.10952,-12.96939],[45.11074,-12.96775],[45.11076,-12.96654],[45.11068,-12.9644],[45.11064,-12.9621],[45.11079,-12.9604],[45.10933,-12.95951],[45.10845,-12.95772],[45.10743,-12.95678],[45.10621,-12.95787],[45.10622,-12.95813],[45.10446,-12.95773],[45.10375,-12.95886],[45.1031,-12.95977],[45.10165,-12.96095],[45.10078,-12.96225],[45.10022,-12.96369],[45.09931,-12.96438],[45.0963,-12.965],[45.0949,-12.96566],[45.09259,-12.96651],[45.09029,-12.96542],[45.08914,-12.96486],[45.08718,-12.96321],[45.08454,-12.96177],[45.08215,-12.96157],[45.08093,-12.96254],[45.07915,-12.96277],[45.07986,-12.96139],[45.08192,-12.96003],[45.08356,-12.95919],[45.08498,-12.95797],[45.08687,-12.95713],[45.08787,-12.95651],[45.09077,-12.95555],[45.0925,-12.95478],[45.09406,-12.95403],[45.09606,-12.95184],[45.09801,-12.94934],[45.09958,-12.94754],[45.10091,-12.9458],[45.10138,-12.94425],[45.10136,-12.94151],[45.10175,-12.93978],[45.1015,-12.93832],[45.10231,-12.93644],[45.10368,-12.93511],[45.1043,-12.93282],[45.10339,-12.93011],[45.10198,-12.92776],[45.09919,-12.92549],[45.09676,-12.92496],[45.09534,-12.92538],[45.09422,-12.92697],[45.09274,-12.92753],[45.0913,-12.92802],[45.08946,-12.92929],[45.08824,-12.92969],[45.08702,-12.92959],[45.08851,-12.92804],[45.08947,-12.92712],[45.0882,-12.92406],[45.08695,-12.92237],[45.08524,-12.92226],[45.08344,-12.92208],[45.08289,-12.92085],[45.08204,-12.918],[45.08094,-12.91658],[45.08062,-12.91428],[45.07934,-12.9123],[45.0789,-12.90989],[45.07837,-12.90818],[45.07787,-12.90666],[45.07737,-12.90534],[45.07631,-12.90386],[45.07518,-12.90294],[45.07298,-12.90187],[45.07156,-12.90203],[45.07184,-12.90052],[45.07115,-12.89932],[45.07223,-12.89949],[45.07381,-12.89922],[45.07721,-12.89848],[45.07922,-12.89861],[45.08186,-12.89877],[45.08325,-12.89853],[45.08455,-12.89798],[45.08672,-12.89799],[45.08837,-12.8984],[45.09005,-12.8983],[45.09256,-12.89788],[45.09459,-12.89855],[45.09666,-12.89853],[45.09895,-12.89856],[45.09927,-12.89983],[45.10009,-12.90148],[45.10219,-12.90308],[45.10269,-12.90488],[45.10275,-12.90589],[45.102,-12.90776],[45.10158,-12.91096],[45.10233,-12.91216],[45.10207,-12.91344],[45.10227,-12.91633],[45.10279,-12.91881],[45.10336,-12.92035],[45.1051,-12.92198],[45.1058,-12.92262],[45.10644,-12.92382],[45.10827,-12.92431],[45.11116,-12.92491],[45.11401,-12.9259],[45.11552,-12.92647],[45.11664,-12.92725],[45.12018,-12.92888],[45.12174,-12.92906],[45.12394,-12.92921],[45.12444,-12.93058],[45.12396,-12.93167],[45.12464,-12.93262],[45.12583,-12.93359],[45.12753,-12.93415],[45.1297,-12.93532],[45.13138,-12.93601],[45.13372,-12.93624],[45.13595,-12.93675],[45.13666,-12.93686],[45.13704,-12.93814],[45.13732,-12.93726],[45.13801,-12.9365],[45.13939,-12.93592],[45.14106,-12.93632],[45.14458,-12.9357],[45.14631,-12.9345],[45.14754,-12.93387],[45.14878,-12.93323],[45.14966,-12.93252],[45.15064,-12.93166],[45.15122,-12.92993],[45.15121,-12.92877],[45.15171,-12.92735],[45.15307,-12.926],[45.15441,-12.92501],[45.15451,-12.92383],[45.1548,-12.92314],[45.15493,-12.92221],[45.15365,-12.9203],[45.15373,-12.91847],[45.15331,-12.91671],[45.15234,-12.91597],[45.15115,-12.91509],[45.15089,-12.91436],[45.15008,-12.91357],[45.14985,-12.91231],[45.14934,-12.91184],[45.14877,-12.91093],[45.14887,-12.90956],[45.14887,-12.90806],[45.14764,-12.90758],[45.14609,-12.90692],[45.14522,-12.90555],[45.14434,-12.90491],[45.14413,-12.90389],[45.1449,-12.90214],[45.14567,-12.90097],[45.14494,-12.90037],[45.14407,-12.89912],[45.14263,-12.89691],[45.14146,-12.89539],[45.14052,-12.89472],[45.14052,-12.89638],[45.14107,-12.89772],[45.1416,-12.89862],[45.14045,-12.89736],[45.14016,-12.89484],[45.13976,-12.89369],[45.14074,-12.89378],[45.13878,-12.89216],[45.13836,-12.89091],[45.13744,-12.89032],[45.13623,-12.8896],[45.13493,-12.88917],[45.1333,-12.88878],[45.1318,-12.88804],[45.13079,-12.88596],[45.13031,-12.88459],[45.13103,-12.88432],[45.12934,-12.88411],[45.12842,-12.88368],[45.12757,-12.88272],[45.12596,-12.88188],[45.12429,-12.882],[45.12329,-12.88114],[45.122,-12.87992],[45.12047,-12.87794],[45.11955,-12.87702],[45.11846,-12.87585],[45.11747,-12.87402],[45.1165,-12.8729],[45.11574,-12.87126],[45.11503,-12.86989],[45.11414,-12.8677],[45.11342,-12.86612],[45.11232,-12.86471],[45.10974,-12.86381],[45.10789,-12.8631],[45.10589,-12.86315],[45.10427,-12.86291],[45.10275,-12.86116],[45.10063,-12.86075],[45.09987,-12.85929],[45.09877,-12.85765],[45.09663,-12.85535],[45.09463,-12.85354],[45.09294,-12.8531],[45.09321,-12.85143],[45.09482,-12.851],[45.096,-12.8513],[45.09851,-12.84956],[45.10024,-12.84782],[45.10175,-12.84547],[45.10169,-12.84431],[45.10298,-12.84368],[45.10612,-12.84477],[45.10825,-12.84367],[45.10958,-12.84406],[45.11178,-12.84408],[45.11371,-12.84401],[45.1154,-12.84413],[45.11667,-12.84291],[45.11746,-12.84165],[45.11912,-12.84085],[45.11968,-12.84014],[45.12054,-12.84005],[45.12042,-12.83955],[45.1191,-12.83944],[45.11795,-12.83913],[45.11575,-12.83874],[45.11394,-12.83799],[45.1121,-12.83659],[45.11026,-12.8367],[45.108,-12.83611],[45.10611,-12.8361],[45.10368,-12.83544],[45.10219,-12.83504],[45.10078,-12.83374],[45.10142,-12.83112],[45.10225,-12.82963],[45.10264,-12.82773],[45.10293,-12.82576],[45.10394,-12.82441],[45.10386,-12.8222],[45.10324,-12.82071],[45.10531,-12.8198],[45.10603,-12.81947],[45.1061,-12.81618],[45.10587,-12.81378],[45.10511,-12.81365],[45.10427,-12.81186],[45.10266,-12.81056],[45.10154,-12.8109],[45.10107,-12.8089],[45.10024,-12.80786],[45.09974,-12.80699],[45.10022,-12.80529],[45.09956,-12.80395],[45.09946,-12.80299],[45.09984,-12.80194]]],[[[45.27135,-12.79331],[45.27021,-12.79249],[45.26804,-12.791],[45.2678,-12.78996],[45.26537,-12.78886],[45.26373,-12.78767],[45.26196,-12.78757],[45.26074,-12.78801],[45.26037,-12.78663],[45.25927,-12.78477],[45.25704,-12.78388],[45.25565,-12.7837],[45.25444,-12.783],[45.25389,-12.78303],[45.25475,-12.78181],[45.25577,-12.78036],[45.25704,-12.78084],[45.25808,-12.78206],[45.2595,-12.78439],[45.26083,-12.78504],[45.26243,-12.78644],[45.26438,-12.78728],[45.26549,-12.78847],[45.26789,-12.78937],[45.26809,-12.78698],[45.26994,-12.78621],[45.2718,-12.78587],[45.27074,-12.78458],[45.27131,-12.78344],[45.27176,-12.7825],[45.27233,-12.78198],[45.27324,-12.78033],[45.27417,-12.77875],[45.27445,-12.7774],[45.27469,-12.77603],[45.27548,-12.77518],[45.27635,-12.77425],[45.27696,-12.77301],[45.27582,-12.77086],[45.27784,-12.76875],[45.27907,-12.76705],[45.28102,-12.76489],[45.28285,-12.76178],[45.28403,-12.76024],[45.28464,-12.75883],[45.28646,-12.76086],[45.28731,-12.76304],[45.28923,-12.76508],[45.29034,-12.76599],[45.29203,-12.76733],[45.29294,-12.76835],[45.29345,-12.76945],[45.29371,-12.77116],[45.29375,-12.77295],[45.29382,-12.77497],[45.29493,-12.77628],[45.29599,-12.77674],[45.29706,-12.77781],[45.29768,-12.77877],[45.29783,-12.77955],[45.29643,-12.78004],[45.29554,-12.78165],[45.29706,-12.78315],[45.29864,-12.78216],[45.29942,-12.78234],[45.29988,-12.78381],[45.29916,-12.7852],[45.2983,-12.78357],[45.29641,-12.7841],[45.29548,-12.78593],[45.29595,-12.78653],[45.29428,-12.78785],[45.29468,-12.78952],[45.29523,-12.79029],[45.29535,-12.79183],[45.29499,-12.79325],[45.29675,-12.7936],[45.29682,-12.79481],[45.2953,-12.79684],[45.2936,-12.79873],[45.29261,-12.79927],[45.29091,-12.79936],[45.28891,-12.79928],[45.28717,-12.79952],[45.28606,-12.80131],[45.28502,-12.80283],[45.28449,-12.80535],[45.28422,-12.80938],[45.28511,-12.81253],[45.28765,-12.81726],[45.28559,-12.81668],[45.28382,-12.81369],[45.28119,-12.81339],[45.27969,-12.81209],[45.27902,-12.8099],[45.27906,-12.8077],[45.27865,-12.80553],[45.27663,-12.80149],[45.27361,-12.79934],[45.27279,-12.7968],[45.27228,-12.79553],[45.2718,-12.79384],[45.27135,-12.79331]]]]}},{"type":"Feature","properties":{"terr":"Nouvelle-Calédonie"},"geometry":{"type":"Polygon","coordinates":[[[165.77999,-21.080005],[166.599991,-21.700019],[167.120011,-22.159991],[166.740035,-22.399976],[166.189732,-22.129708],[165.474375,-21.679607],[164.829815,-21.14982],[164.167995,-20.444747],[164.029606,-20.105646],[164.459967,-20.120012],[165.020036,-20.459991],[165.460009,-20.800022],[165.77999,-21.080005]]]}},{"type":"Feature","properties":{"terr":"Polynésie française"},"geometry":{"type":"Polygon","coordinates":[[[-149.6209007,-17.5623388],[-149.6195519,-17.564299],[-149.6200423,-17.5648034],[-149.6166686,-17.5665337],[-149.6157013,-17.5690031],[-149.6156066,-17.5700801],[-149.6194475,-17.5694465],[-149.6204642,-17.5703971],[-149.6197932,-17.570803],[-149.620184,-17.5710099],[-149.6196347,-17.5713385],[-149.6202587,-17.5737905],[-149.6179163,-17.5744078],[-149.6164612,-17.5755672],[-149.6169782,-17.5787058],[-149.6167774,-17.582654],[-149.6159426,-17.5845487],[-149.6153139,-17.5856553],[-149.6148848,-17.587638],[-149.6148875,-17.5879461],[-149.6135206,-17.5902631],[-149.6133708,-17.5932385],[-149.6125342,-17.5974067],[-149.6135918,-17.6011287],[-149.6143087,-17.603526],[-149.6140809,-17.6046967],[-149.6146385,-17.609318],[-149.6148942,-17.614004],[-149.6160598,-17.6172088],[-149.6154753,-17.6224046],[-149.6135031,-17.6287932],[-149.6162003,-17.6341821],[-149.6124099,-17.6377367],[-149.6094187,-17.6408346],[-149.6030933,-17.6496119],[-149.6005545,-17.6539053],[-149.5984617,-17.658564],[-149.5973564,-17.6613577],[-149.5955306,-17.6665987],[-149.5883538,-17.6804419],[-149.5857279,-17.6902665],[-149.5849886,-17.6979127],[-149.5837145,-17.7137624],[-149.5816858,-17.7207729],[-149.5808025,-17.7267483],[-149.5790032,-17.7335794],[-149.5783766,-17.7394731],[-149.5751908,-17.7415641],[-149.5716643,-17.7420342],[-149.5659131,-17.7459686],[-149.5629747,-17.7487589],[-149.5560276,-17.7519333],[-149.5528386,-17.7526908],[-149.5496637,-17.7509855],[-149.5439618,-17.7526968],[-149.5375814,-17.752827],[-149.5333799,-17.7535192],[-149.5300497,-17.754968],[-149.5249279,-17.7542152],[-149.5221416,-17.7561166],[-149.5197995,-17.7589819],[-149.5178175,-17.7613823],[-149.5033088,-17.7641073],[-149.4951376,-17.7664092],[-149.4888021,-17.7682792],[-149.4830088,-17.7695445],[-149.4781379,-17.7735565],[-149.4744306,-17.7785907],[-149.4659113,-17.7771345],[-149.4587266,-17.7800071],[-149.4547737,-17.7791112],[-149.4517822,-17.7800764],[-149.4440988,-17.7737744],[-149.4393553,-17.7728112],[-149.4345299,-17.771717],[-149.4352473,-17.7729286],[-149.4281313,-17.7725252],[-149.4224022,-17.7716506],[-149.4162679,-17.7726902],[-149.4121118,-17.7739546],[-149.4064672,-17.7694932],[-149.3971506,-17.7708513],[-149.3945696,-17.7689618],[-149.3928123,-17.7620905],[-149.3896583,-17.761032],[-149.3835421,-17.7597378],[-149.377209,-17.7605656],[-149.3718085,-17.7587128],[-149.3685295,-17.7601327],[-149.3664573,-17.7610146],[-149.3579221,-17.7597407],[-149.351946,-17.75573],[-149.3455729,-17.7553693],[-149.3411701,-17.7515549],[-149.3384607,-17.7462174],[-149.3390324,-17.741291],[-149.3424154,-17.7392758],[-149.3380545,-17.7395182],[-149.3358056,-17.7367192],[-149.3368898,-17.7350091],[-149.3313582,-17.7355719],[-149.3322285,-17.7321147],[-149.3314274,-17.7312445],[-149.3286749,-17.7301329],[-149.3249142,-17.7281812],[-149.3237278,-17.729223],[-149.3201187,-17.730532],[-149.3255275,-17.7334623],[-149.3209975,-17.7349289],[-149.3186682,-17.7361132],[-149.3228769,-17.7392598],[-149.3258383,-17.7398645],[-149.3277944,-17.7419837],[-149.3309653,-17.7439664],[-149.327493,-17.7470221],[-149.3306701,-17.7449406],[-149.3325676,-17.7448287],[-149.3304387,-17.74763],[-149.3236216,-17.7503079],[-149.3212788,-17.747584],[-149.3175599,-17.7488439],[-149.3215994,-17.7499159],[-149.3193244,-17.7549508],[-149.3191231,-17.7587792],[-149.3179153,-17.7621638],[-149.3172135,-17.762237],[-149.3124866,-17.7662371],[-149.3089743,-17.7723229],[-149.3112834,-17.7800803],[-149.3110984,-17.7802159],[-149.3080065,-17.7818529],[-149.3032953,-17.7847372],[-149.3020856,-17.7860429],[-149.2981974,-17.7918179],[-149.2971629,-17.8000021],[-149.2956545,-17.803219],[-149.2931785,-17.8060367],[-149.2927034,-17.8083129],[-149.292843,-17.8099129],[-149.2928501,-17.8102778],[-149.2931907,-17.8116665],[-149.2941914,-17.8144424],[-149.2962062,-17.8180425],[-149.2940304,-17.8244364],[-149.2888479,-17.8255232],[-149.2865987,-17.8260493],[-149.2845079,-17.8296963],[-149.281775,-17.8331355],[-149.2786553,-17.8373322],[-149.275505,-17.8398331],[-149.2703725,-17.8444275],[-149.2716035,-17.8468313],[-149.2652776,-17.8494395],[-149.2635276,-17.8500904],[-149.2625178,-17.8490446],[-149.2601804,-17.8505697],[-149.25893,-17.8525312],[-149.2586142,-17.8546001],[-149.2581013,-17.8550394],[-149.2543535,-17.8567411],[-149.2508455,-17.8576802],[-149.2500883,-17.861274],[-149.2449449,-17.8619076],[-149.2375883,-17.8616218],[-149.2332648,-17.8626186],[-149.2291742,-17.8641836],[-149.2209214,-17.8660224],[-149.2143912,-17.8656803],[-149.2111843,-17.8674056],[-149.2044613,-17.8693872],[-149.2002066,-17.8707341],[-149.1970856,-17.8738419],[-149.1942363,-17.8743292],[-149.1939344,-17.8732223],[-149.1913217,-17.8731384],[-149.1901777,-17.8733672],[-149.18964,-17.8747993],[-149.1871925,-17.8763613],[-149.185598,-17.8783227],[-149.181266,-17.8770436],[-149.1775567,-17.8774985],[-149.169947,-17.8797941],[-149.1630485,-17.8803587],[-149.157162,-17.878022],[-149.1555893,-17.8770444],[-149.1509204,-17.8730517],[-149.1477836,-17.8728517],[-149.1419224,-17.8649327],[-149.1404071,-17.861753],[-149.1382819,-17.8578507],[-149.1337073,-17.8531975],[-149.1326294,-17.8450444],[-149.1305603,-17.8431833],[-149.1305173,-17.8361543],[-149.1291074,-17.8294093],[-149.1270221,-17.825956],[-149.1272913,-17.8232658],[-149.1250237,-17.8232295],[-149.1248202,-17.8180117],[-149.1258158,-17.818137],[-149.1288739,-17.813688],[-149.1295069,-17.8080081],[-149.1258876,-17.8037676],[-149.1288259,-17.8008677],[-149.1280818,-17.7967684],[-149.129441,-17.7902057],[-149.1283417,-17.7843148],[-149.129934,-17.7789285],[-149.1337938,-17.776211],[-149.1355145,-17.7728094],[-149.1375909,-17.7703567],[-149.1406776,-17.7671161],[-149.1438856,-17.7647012],[-149.1491914,-17.7610999],[-149.1512803,-17.7575209],[-149.1547305,-17.7564307],[-149.1574063,-17.7526139],[-149.1579919,-17.7519948],[-149.1582598,-17.7479147],[-149.1638479,-17.7479866],[-149.1650794,-17.7521547],[-149.1656896,-17.7520829],[-149.175599,-17.7532242],[-149.1794944,-17.7522435],[-149.1820853,-17.7517197],[-149.1856468,-17.7511469],[-149.1907544,-17.7501464],[-149.1955879,-17.7486153],[-149.1992448,-17.7476826],[-149.203029,-17.7420633],[-149.2102658,-17.7445319],[-149.2192429,-17.7377657],[-149.2221947,-17.7364057],[-149.2255332,-17.7372579],[-149.2286294,-17.7355362],[-149.2319552,-17.7348499],[-149.2354791,-17.73473],[-149.2448634,-17.735959],[-149.2551012,-17.738972],[-149.2630081,-17.7382838],[-149.2713564,-17.7370459],[-149.2755501,-17.7350946],[-149.2810428,-17.7324691],[-149.2923839,-17.7295685],[-149.298246,-17.7279442],[-149.3017293,-17.7231394],[-149.3047213,-17.7215894],[-149.3058838,-17.7192491],[-149.3055453,-17.7138742],[-149.3025365,-17.7032638],[-149.304098,-17.6985584],[-149.3041985,-17.6943075],[-149.3045769,-17.6846316],[-149.3047971,-17.6771294],[-149.307925,-17.6679979],[-149.3106199,-17.6600087],[-149.3109884,-17.655408],[-149.3106558,-17.650575],[-149.3092141,-17.6437494],[-149.3100494,-17.6390548],[-149.3064166,-17.6365997],[-149.3029794,-17.6279293],[-149.3029387,-17.625782],[-149.3025837,-17.6213078],[-149.301609,-17.6178117],[-149.3012551,-17.6132333],[-149.2997933,-17.6105589],[-149.2990461,-17.6094172],[-149.3018419,-17.6028242],[-149.3059485,-17.5950833],[-149.3068637,-17.5889574],[-149.3095906,-17.5863594],[-149.3089232,-17.5794048],[-149.31446,-17.5717562],[-149.316138,-17.5704888],[-149.3251751,-17.5636558],[-149.3262181,-17.5610731],[-149.3309741,-17.5540683],[-149.3365328,-17.5479624],[-149.3456291,-17.5424491],[-149.3508992,-17.5408784],[-149.3551253,-17.5397208],[-149.3624578,-17.5407778],[-149.3670987,-17.5391113],[-149.3706459,-17.5391864],[-149.3809107,-17.532435],[-149.3865789,-17.5275747],[-149.3902647,-17.5266615],[-149.3913795,-17.523273],[-149.3936859,-17.5219371],[-149.3956348,-17.520711],[-149.3979808,-17.5190043],[-149.4007434,-17.5185496],[-149.4026693,-17.5178751],[-149.4041264,-17.5159907],[-149.4058934,-17.5162958],[-149.4086641,-17.5164153],[-149.4183673,-17.5125281],[-149.4293774,-17.5072234],[-149.4460737,-17.5079985],[-149.4570372,-17.5068518],[-149.4592661,-17.5068836],[-149.4634999,-17.5077852],[-149.4746966,-17.5053144],[-149.4804262,-17.4995609],[-149.4894136,-17.4970077],[-149.4950252,-17.495292],[-149.4945811,-17.4965377],[-149.5004724,-17.5106674],[-149.5032718,-17.5118313],[-149.5074045,-17.5118884],[-149.50513,-17.5156432],[-149.5106931,-17.5187776],[-149.5134008,-17.5225083],[-149.5202261,-17.5240795],[-149.5213552,-17.5237737],[-149.5237725,-17.5236801],[-149.5258253,-17.5210906],[-149.5277506,-17.521558],[-149.529651,-17.5236103],[-149.5342203,-17.5247199],[-149.5367077,-17.5250776],[-149.5394401,-17.5226634],[-149.5409679,-17.5223107],[-149.5437432,-17.5213758],[-149.5515167,-17.5253557],[-149.5551598,-17.5244118],[-149.5584305,-17.525285],[-149.559093,-17.5254479],[-149.5618917,-17.5269479],[-149.5648542,-17.5281533],[-149.5671547,-17.5263421],[-149.5711152,-17.5301462],[-149.5734339,-17.5296016],[-149.5740907,-17.532131],[-149.5711475,-17.533497],[-149.5692756,-17.5350468],[-149.5690854,-17.5369011],[-149.571041,-17.5392307],[-149.5690924,-17.5397378],[-149.5699764,-17.5403182],[-149.5711385,-17.5405712],[-149.5716054,-17.5403291],[-149.5721812,-17.5403853],[-149.5725478,-17.5407032],[-149.5732448,-17.541394],[-149.5739222,-17.5417313],[-149.5755669,-17.5425128],[-149.5776673,-17.5430689],[-149.5806655,-17.5439434],[-149.58485,-17.545228],[-149.5857184,-17.5448941],[-149.5867749,-17.5450689],[-149.5878326,-17.5456493],[-149.591018,-17.5453507],[-149.5941906,-17.5442651],[-149.6003579,-17.5474021],[-149.6016244,-17.5469728],[-149.6029965,-17.5498736],[-149.6039949,-17.5486705],[-149.6094387,-17.5533764],[-149.6124954,-17.5523416],[-149.6135908,-17.5526161],[-149.6135221,-17.5512442],[-149.6147266,-17.5526975],[-149.6148277,-17.5533062],[-149.615773,-17.5555508],[-149.6152999,-17.555833],[-149.6151116,-17.5564681],[-149.6181487,-17.558748],[-149.6152119,-17.5570343],[-149.6165698,-17.5592255],[-149.6182921,-17.5596565],[-149.619964,-17.5616123],[-149.6201307,-17.5607943],[-149.6209007,-17.5623388]]]}},{"type":"Feature","properties":{"terr":"Polynésie française"},"geometry":{"type":"Polygon","coordinates":[[[-151.4935057,-16.7925928],[-151.4921943,-16.7954098],[-151.4901071,-16.798409],[-151.4901045,-16.8025059],[-151.4885569,-16.8065645],[-151.4875137,-16.8079759],[-151.4859789,-16.8107523],[-151.4845455,-16.8163306],[-151.4831951,-16.8196029],[-151.4812982,-16.8174333],[-151.4784366,-16.817592],[-151.4775033,-16.8219752],[-151.4794123,-16.8247004],[-151.4814272,-16.8280461],[-151.4806947,-16.8288902],[-151.4789366,-16.8299748],[-151.4813522,-16.8333979],[-151.4820812,-16.8369712],[-151.4837088,-16.837631],[-151.4824547,-16.8405219],[-151.4816069,-16.8430474],[-151.4810977,-16.8464562],[-151.4790418,-16.8490844],[-151.4798587,-16.8524122],[-151.4812726,-16.8539517],[-151.4823243,-16.8552445],[-151.4812283,-16.8600287],[-151.4803378,-16.8609575],[-151.4788535,-16.859635],[-151.4754437,-16.8577091],[-151.4731386,-16.8564526],[-151.4667821,-16.8575067],[-151.4638082,-16.859738],[-151.4666584,-16.8614179],[-151.4692139,-16.8626552],[-151.4704844,-16.8642851],[-151.471787,-16.8661721],[-151.4682823,-16.8752976],[-151.4669772,-16.8786676],[-151.4653872,-16.8805081],[-151.4648381,-16.8809983],[-151.4632561,-16.8834757],[-151.4587074,-16.8865852],[-151.4589709,-16.8892686],[-151.4596897,-16.8897616],[-151.463399,-16.891931],[-151.4641902,-16.8924489],[-151.4655579,-16.895416],[-151.4659381,-16.8964603],[-151.4669383,-16.8975784],[-151.4665916,-16.8985778],[-151.4685449,-16.9010154],[-151.4692997,-16.9031384],[-151.4700165,-16.9047937],[-151.4692958,-16.9075334],[-151.4600682,-16.9102032],[-151.4584012,-16.9097646],[-151.4580767,-16.9107213],[-151.4574674,-16.9114607],[-151.4588887,-16.9134052],[-151.4593597,-16.9140146],[-151.4539216,-16.9153281],[-151.4492397,-16.9180177],[-151.4447948,-16.9149299],[-151.4413222,-16.9097733],[-151.4368712,-16.9088619],[-151.4358399,-16.908336],[-151.4337352,-16.9071512],[-151.4334612,-16.9049828],[-151.4332892,-16.9025719],[-151.4323845,-16.9012557],[-151.4331065,-16.8968647],[-151.4333912,-16.8939719],[-151.4325586,-16.8935677],[-151.4300876,-16.8937714],[-151.4257803,-16.8908151],[-151.4273647,-16.8878614],[-151.4290932,-16.8852451],[-151.4231348,-16.878623],[-151.4194819,-16.8880096],[-151.4178837,-16.8928075],[-151.4143784,-16.8954066],[-151.4104511,-16.8910116],[-151.4068879,-16.8907977],[-151.4034846,-16.890544],[-151.4011678,-16.8909612],[-151.3974813,-16.8917923],[-151.3943608,-16.8909203],[-151.3909176,-16.8870141],[-151.3933809,-16.8828023],[-151.3923965,-16.8818418],[-151.3899269,-16.8808741],[-151.3887474,-16.8806755],[-151.3838902,-16.8840187],[-151.3831696,-16.880906],[-151.3835733,-16.8792953],[-151.3839545,-16.8778928],[-151.3811848,-16.87738],[-151.3779021,-16.8765827],[-151.3768607,-16.8760476],[-151.3758141,-16.8750451],[-151.3746975,-16.8733221],[-151.3734616,-16.8747162],[-151.3737751,-16.8766741],[-151.3713412,-16.8761349],[-151.3703078,-16.8765335],[-151.3700166,-16.8732047],[-151.370927,-16.870593],[-151.3697731,-16.8702571],[-151.3668059,-16.8700774],[-151.3690186,-16.871657],[-151.3644407,-16.8715225],[-151.362021,-16.8682721],[-151.3585865,-16.8644433],[-151.3556815,-16.8624271],[-151.3538148,-16.8599091],[-151.3534674,-16.8569102],[-151.3532155,-16.8551999],[-151.3520274,-16.8520104],[-151.3525204,-16.8471573],[-151.3557803,-16.8455576],[-151.355908,-16.8460972],[-151.3591563,-16.8472019],[-151.3617226,-16.8476784],[-151.364572,-16.8477902],[-151.3643971,-16.8460705],[-151.3651787,-16.8466766],[-151.3665886,-16.8463162],[-151.3708342,-16.8464178],[-151.3700275,-16.8450071],[-151.3670456,-16.8428578],[-151.3643592,-16.8424263],[-151.363205,-16.8421087],[-151.3597325,-16.841259],[-151.3581561,-16.8388712],[-151.3575011,-16.8359889],[-151.3610965,-16.8353419],[-151.3644888,-16.8351659],[-151.3683882,-16.8364404],[-151.3717427,-16.8366374],[-151.3745106,-16.8356491],[-151.3748813,-16.8331946],[-151.3705615,-16.8300058],[-151.3699729,-16.8299528],[-151.370176,-16.82842],[-151.3710892,-16.8271973],[-151.3739607,-16.8259799],[-151.3756866,-16.8254264],[-151.3783713,-16.8252552],[-151.3814383,-16.8230553],[-151.3857878,-16.8251103],[-151.3887589,-16.8282099],[-151.3904537,-16.8276788],[-151.3928115,-16.8278478],[-151.3921804,-16.8266134],[-151.3921629,-16.8232605],[-151.392608,-16.8202871],[-151.3934879,-16.8192776],[-151.3942386,-16.8190704],[-151.3950326,-16.8191499],[-151.3976818,-16.8194758],[-151.3978556,-16.8157469],[-151.397321,-16.8146932],[-151.3953783,-16.8110617],[-151.395957,-16.8083188],[-151.3988574,-16.8082846],[-151.4031289,-16.8073311],[-151.4042175,-16.8104908],[-151.4081619,-16.8133144],[-151.4100444,-16.815062],[-151.4106785,-16.8154966],[-151.4127921,-16.8178377],[-151.4147425,-16.8206575],[-151.4179166,-16.8228878],[-151.4183969,-16.8227605],[-151.4194985,-16.8221409],[-151.4206524,-16.8237275],[-151.4212817,-16.8247933],[-151.4216528,-16.8251877],[-151.4205804,-16.8223758],[-151.4187187,-16.8190838],[-151.4168051,-16.8150819],[-151.413575,-16.8121015],[-151.411363,-16.8092935],[-151.4081969,-16.8048081],[-151.4045752,-16.8019949],[-151.4006818,-16.7978349],[-151.3995804,-16.7958967],[-151.401367,-16.7959332],[-151.4026433,-16.7957354],[-151.4055244,-16.795209],[-151.4084306,-16.7942336],[-151.4087634,-16.7917487],[-151.4086935,-16.7893663],[-151.4080525,-16.7863857],[-151.4104148,-16.7849969],[-151.4134091,-16.785307],[-151.4142499,-16.7838236],[-151.415093,-16.7816479],[-151.413244,-16.7782111],[-151.4147089,-16.7751449],[-151.4173181,-16.7774612],[-151.4197792,-16.7778498],[-151.4197702,-16.7794174],[-151.4223203,-16.7780395],[-151.4240515,-16.7751248],[-151.4235345,-16.7727682],[-151.4217769,-16.7718215],[-151.4233057,-16.7709947],[-151.4222028,-16.7705646],[-151.4218056,-16.7691814],[-151.4224926,-16.7671891],[-151.4225226,-16.7637328],[-151.4238299,-16.7617336],[-151.4254997,-16.760835],[-151.4264137,-16.758382],[-151.4278991,-16.7570441],[-151.4288868,-16.7545827],[-151.4296408,-16.7533281],[-151.432097,-16.7524134],[-151.4329807,-16.7517146],[-151.4332242,-16.7507613],[-151.4317496,-16.7485065],[-151.4341159,-16.7478318],[-151.4349594,-16.7458315],[-151.4371394,-16.7464085],[-151.4375821,-16.7452392],[-151.4379106,-16.7416707],[-151.436569,-16.7405627],[-151.4348774,-16.7389766],[-151.4353818,-16.7360774],[-151.4364989,-16.7358694],[-151.4388874,-16.7354231],[-151.4390576,-16.7331792],[-151.4429247,-16.729504],[-151.4437075,-16.7265944],[-151.4458941,-16.7257392],[-151.4466335,-16.7239984],[-151.4482756,-16.7252477],[-151.449322,-16.7245921],[-151.4489757,-16.7240035],[-151.4489971,-16.722215],[-151.4497797,-16.7229365],[-151.4502516,-16.7230672],[-151.4514894,-16.7234442],[-151.4537664,-16.7222758],[-151.4567718,-16.721843],[-151.4586981,-16.7227918],[-151.4610909,-16.7229971],[-151.4591817,-16.7217648],[-151.4648,-16.722036],[-151.4667117,-16.7213726],[-151.4674499,-16.7223887],[-151.4696514,-16.7219433],[-151.4688713,-16.723969],[-151.4672697,-16.725037],[-151.4684277,-16.7245037],[-151.4712957,-16.7243947],[-151.4724872,-16.7245201],[-151.4744314,-16.7255242],[-151.4763229,-16.7269786],[-151.4781769,-16.7276445],[-151.4774261,-16.7289022],[-151.4758211,-16.7307964],[-151.4769822,-16.7309631],[-151.480291,-16.7307021],[-151.4826649,-16.7337227],[-151.4844356,-16.7357945],[-151.4847595,-16.7355551],[-151.4851716,-16.7361718],[-151.4854562,-16.7364237],[-151.4854998,-16.7377351],[-151.486287,-16.7394214],[-151.4840658,-16.7422453],[-151.4830465,-16.7440288],[-151.481708,-16.7472313],[-151.4853305,-16.7460234],[-151.488269,-16.7449064],[-151.4904549,-16.7451415],[-151.4903447,-16.7492581],[-151.4918069,-16.7544721],[-151.4922428,-16.755985],[-151.4921718,-16.7582431],[-151.4878804,-16.7571576],[-151.4872802,-16.7581988],[-151.488396,-16.759282],[-151.4899114,-16.7615],[-151.4922265,-16.7642995],[-151.4919457,-16.7663017],[-151.4926627,-16.76985],[-151.490967,-16.7714803],[-151.4919202,-16.7734709],[-151.4907161,-16.7764699],[-151.4898342,-16.7812493],[-151.4891436,-16.781943],[-151.4900278,-16.7856323],[-151.4905227,-16.7907307],[-151.4923579,-16.7918873],[-151.4935057,-16.7925928]]]}}]}